{
  "type": "Feature",
  "properties": {
    "dropId": "blue-lagoon-croatia",
    "label": "Blue Lagoon",
    "startDate": "2025-09-12",
    "endDate": "2026-05-23",
    "daysElapsed": 253,
    "estimatedRegion": "the northern Adriatic, along the Istrian and Dalmatian coast",
    "currentName": "Adriatic coastal current",
    "direction": "NW",
    "speedKmDay": 0.75,
    "lastLat": 44.6658,
    "lastLng": 14.4544
  },
  "geometry": {
    "type": "LineString",
    "coordinates": [
      [
        16.1403,
        43.4544
      ],
      [
        16.13373,
        43.45917
      ],
      [
        16.12716,
        43.46394
      ],
      [
        16.12059,
        43.46871
      ],
      [
        16.11401,
        43.47348
      ],
      [
        16.10744,
        43.47825
      ],
      [
        16.10087,
        43.48302
      ],
      [
        16.09429,
        43.48778
      ],
      [
        16.08772,
        43.49255
      ],
      [
        16.08115,
        43.49732
      ],
      [
        16.07457,
        43.50209
      ],
      [
        16.06799,
        43.50686
      ],
      [
        16.06142,
        43.51163
      ],
      [
        16.05484,
        43.5164
      ],
      [
        16.04826,
        43.52117
      ],
      [
        16.04169,
        43.52594
      ],
      [
        16.03511,
        43.53071
      ],
      [
        16.02853,
        43.53548
      ],
      [
        16.02195,
        43.54025
      ],
      [
        16.01537,
        43.54501
      ],
      [
        16.00879,
        43.54978
      ],
      [
        16.00221,
        43.55455
      ],
      [
        15.99563,
        43.55932
      ],
      [
        15.98904,
        43.56409
      ],
      [
        15.98246,
        43.56886
      ],
      [
        15.97588,
        43.57363
      ],
      [
        15.9693,
        43.5784
      ],
      [
        15.96271,
        43.58317
      ],
      [
        15.95613,
        43.58794
      ],
      [
        15.94954,
        43.59271
      ],
      [
        15.94296,
        43.59748
      ],
      [
        15.93637,
        43.60224
      ],
      [
        15.92978,
        43.60701
      ],
      [
        15.9232,
        43.61178
      ],
      [
        15.91661,
        43.61655
      ],
      [
        15.91002,
        43.62132
      ],
      [
        15.90343,
        43.62609
      ],
      [
        15.89684,
        43.63086
      ],
      [
        15.89025,
        43.63563
      ],
      [
        15.88366,
        43.6404
      ],
      [
        15.87707,
        43.64517
      ],
      [
        15.87048,
        43.64994
      ],
      [
        15.86389,
        43.65471
      ],
      [
        15.85729,
        43.65947
      ],
      [
        15.8507,
        43.66424
      ],
      [
        15.84411,
        43.66901
      ],
      [
        15.83751,
        43.67378
      ],
      [
        15.83092,
        43.67855
      ],
      [
        15.82432,
        43.68332
      ],
      [
        15.81773,
        43.68809
      ],
      [
        15.81113,
        43.69286
      ],
      [
        15.80454,
        43.69763
      ],
      [
        15.79794,
        43.7024
      ],
      [
        15.79134,
        43.70717
      ],
      [
        15.78474,
        43.71194
      ],
      [
        15.77814,
        43.71671
      ],
      [
        15.77154,
        43.72147
      ],
      [
        15.76494,
        43.72624
      ],
      [
        15.75834,
        43.73101
      ],
      [
        15.75174,
        43.73578
      ],
      [
        15.74514,
        43.74055
      ],
      [
        15.73854,
        43.74532
      ],
      [
        15.73194,
        43.75009
      ],
      [
        15.72533,
        43.75486
      ],
      [
        15.71873,
        43.75963
      ],
      [
        15.71213,
        43.7644
      ],
      [
        15.70552,
        43.76917
      ],
      [
        15.69892,
        43.77394
      ],
      [
        15.69231,
        43.7787
      ],
      [
        15.68571,
        43.78347
      ],
      [
        15.6791,
        43.78824
      ],
      [
        15.67249,
        43.79301
      ],
      [
        15.66588,
        43.79778
      ],
      [
        15.65928,
        43.80255
      ],
      [
        15.65267,
        43.80732
      ],
      [
        15.64606,
        43.81209
      ],
      [
        15.63945,
        43.81686
      ],
      [
        15.63284,
        43.82163
      ],
      [
        15.62623,
        43.8264
      ],
      [
        15.61961,
        43.83117
      ],
      [
        15.613,
        43.83593
      ],
      [
        15.60639,
        43.8407
      ],
      [
        15.59978,
        43.84547
      ],
      [
        15.59316,
        43.85024
      ],
      [
        15.58655,
        43.85501
      ],
      [
        15.57994,
        43.85978
      ],
      [
        15.57332,
        43.86455
      ],
      [
        15.5667,
        43.86932
      ],
      [
        15.56009,
        43.87409
      ],
      [
        15.55347,
        43.87886
      ],
      [
        15.54685,
        43.88363
      ],
      [
        15.54024,
        43.8884
      ],
      [
        15.53362,
        43.89316
      ],
      [
        15.527,
        43.89793
      ],
      [
        15.52038,
        43.9027
      ],
      [
        15.51376,
        43.90747
      ],
      [
        15.50714,
        43.91224
      ],
      [
        15.50052,
        43.91701
      ],
      [
        15.4939,
        43.92178
      ],
      [
        15.48728,
        43.92655
      ],
      [
        15.48065,
        43.93132
      ],
      [
        15.47403,
        43.93609
      ],
      [
        15.46741,
        43.94086
      ],
      [
        15.46078,
        43.94563
      ],
      [
        15.45416,
        43.9504
      ],
      [
        15.44753,
        43.95516
      ],
      [
        15.44091,
        43.95993
      ],
      [
        15.43428,
        43.9647
      ],
      [
        15.42765,
        43.96947
      ],
      [
        15.42103,
        43.97424
      ],
      [
        15.4144,
        43.97901
      ],
      [
        15.40777,
        43.98378
      ],
      [
        15.40114,
        43.98855
      ],
      [
        15.39451,
        43.99332
      ],
      [
        15.38788,
        43.99809
      ],
      [
        15.38125,
        44.00286
      ],
      [
        15.37462,
        44.00763
      ],
      [
        15.36799,
        44.01239
      ],
      [
        15.36136,
        44.01716
      ],
      [
        15.35472,
        44.02193
      ],
      [
        15.34809,
        44.0267
      ],
      [
        15.34146,
        44.03147
      ],
      [
        15.33482,
        44.03624
      ],
      [
        15.32819,
        44.04101
      ],
      [
        15.32155,
        44.04578
      ],
      [
        15.31492,
        44.05055
      ],
      [
        15.30828,
        44.05532
      ],
      [
        15.30164,
        44.06009
      ],
      [
        15.29501,
        44.06486
      ],
      [
        15.28837,
        44.06962
      ],
      [
        15.28173,
        44.07439
      ],
      [
        15.27509,
        44.07916
      ],
      [
        15.26845,
        44.08393
      ],
      [
        15.26181,
        44.0887
      ],
      [
        15.25517,
        44.09347
      ],
      [
        15.24853,
        44.09824
      ],
      [
        15.24189,
        44.10301
      ],
      [
        15.23524,
        44.10778
      ],
      [
        15.2286,
        44.11255
      ],
      [
        15.22196,
        44.11732
      ],
      [
        15.21531,
        44.12209
      ],
      [
        15.20867,
        44.12685
      ],
      [
        15.20202,
        44.13162
      ],
      [
        15.19538,
        44.13639
      ],
      [
        15.18873,
        44.14116
      ],
      [
        15.18209,
        44.14593
      ],
      [
        15.17544,
        44.1507
      ],
      [
        15.16879,
        44.15547
      ],
      [
        15.16214,
        44.16024
      ],
      [
        15.15549,
        44.16501
      ],
      [
        15.14885,
        44.16978
      ],
      [
        15.1422,
        44.17455
      ],
      [
        15.13555,
        44.17932
      ],
      [
        15.12889,
        44.18408
      ],
      [
        15.12224,
        44.18885
      ],
      [
        15.11559,
        44.19362
      ],
      [
        15.10894,
        44.19839
      ],
      [
        15.10229,
        44.20316
      ],
      [
        15.09563,
        44.20793
      ],
      [
        15.08898,
        44.2127
      ],
      [
        15.08232,
        44.21747
      ],
      [
        15.07567,
        44.22224
      ],
      [
        15.06901,
        44.22701
      ],
      [
        15.06236,
        44.23178
      ],
      [
        15.0557,
        44.23655
      ],
      [
        15.04904,
        44.24132
      ],
      [
        15.04238,
        44.24608
      ],
      [
        15.03573,
        44.25085
      ],
      [
        15.02907,
        44.25562
      ],
      [
        15.02241,
        44.26039
      ],
      [
        15.01575,
        44.26516
      ],
      [
        15.00909,
        44.26993
      ],
      [
        15.00243,
        44.2747
      ],
      [
        14.99576,
        44.27947
      ],
      [
        14.9891,
        44.28424
      ],
      [
        14.98244,
        44.28901
      ],
      [
        14.97578,
        44.29378
      ],
      [
        14.96911,
        44.29855
      ],
      [
        14.96245,
        44.30331
      ],
      [
        14.95578,
        44.30808
      ],
      [
        14.94912,
        44.31285
      ],
      [
        14.94245,
        44.31762
      ],
      [
        14.93578,
        44.32239
      ],
      [
        14.92912,
        44.32716
      ],
      [
        14.92245,
        44.33193
      ],
      [
        14.91578,
        44.3367
      ],
      [
        14.90911,
        44.34147
      ],
      [
        14.90244,
        44.34624
      ],
      [
        14.89577,
        44.35101
      ],
      [
        14.8891,
        44.35578
      ],
      [
        14.88243,
        44.36054
      ],
      [
        14.87576,
        44.36531
      ],
      [
        14.86909,
        44.37008
      ],
      [
        14.86242,
        44.37485
      ],
      [
        14.85574,
        44.37962
      ],
      [
        14.84907,
        44.38439
      ],
      [
        14.8424,
        44.38916
      ],
      [
        14.83572,
        44.39393
      ],
      [
        14.82905,
        44.3987
      ],
      [
        14.82237,
        44.40347
      ],
      [
        14.81569,
        44.40824
      ],
      [
        14.80902,
        44.41301
      ],
      [
        14.80234,
        44.41777
      ],
      [
        14.79566,
        44.42254
      ],
      [
        14.78898,
        44.42731
      ],
      [
        14.7823,
        44.43208
      ],
      [
        14.77562,
        44.43685
      ],
      [
        14.76894,
        44.44162
      ],
      [
        14.76226,
        44.44639
      ],
      [
        14.75558,
        44.45116
      ],
      [
        14.7489,
        44.45593
      ],
      [
        14.74222,
        44.4607
      ],
      [
        14.73554,
        44.46547
      ],
      [
        14.72885,
        44.47024
      ],
      [
        14.72217,
        44.475
      ],
      [
        14.71548,
        44.47977
      ],
      [
        14.7088,
        44.48454
      ],
      [
        14.70211,
        44.48931
      ],
      [
        14.69543,
        44.49408
      ],
      [
        14.68874,
        44.49885
      ],
      [
        14.68205,
        44.50362
      ],
      [
        14.67537,
        44.50839
      ],
      [
        14.66868,
        44.51316
      ],
      [
        14.66199,
        44.51793
      ],
      [
        14.6553,
        44.5227
      ],
      [
        14.64861,
        44.52747
      ],
      [
        14.64192,
        44.53223
      ],
      [
        14.63523,
        44.537
      ],
      [
        14.62854,
        44.54177
      ],
      [
        14.62184,
        44.54654
      ],
      [
        14.61515,
        44.55131
      ],
      [
        14.60846,
        44.55608
      ],
      [
        14.60176,
        44.56085
      ],
      [
        14.59507,
        44.56562
      ],
      [
        14.58837,
        44.57039
      ],
      [
        14.58168,
        44.57516
      ],
      [
        14.57498,
        44.57993
      ],
      [
        14.56829,
        44.5847
      ],
      [
        14.56159,
        44.58947
      ],
      [
        14.55489,
        44.59423
      ],
      [
        14.54819,
        44.599
      ],
      [
        14.54149,
        44.60377
      ],
      [
        14.5348,
        44.60854
      ],
      [
        14.5281,
        44.61331
      ],
      [
        14.52139,
        44.61808
      ],
      [
        14.51469,
        44.62285
      ],
      [
        14.50799,
        44.62762
      ],
      [
        14.50129,
        44.63239
      ],
      [
        14.49459,
        44.63716
      ],
      [
        14.48788,
        44.64193
      ],
      [
        14.48118,
        44.6467
      ],
      [
        14.47448,
        44.65146
      ],
      [
        14.46777,
        44.65623
      ],
      [
        14.46107,
        44.661
      ],
      [
        14.45436,
        44.66577
      ]
    ]
  }
}
