{
  "type": "Feature",
  "properties": {
    "dropId": "dominican-republic",
    "label": "Dominican Republic",
    "startDate": "2025-02-15",
    "endDate": "2026-05-23",
    "daysElapsed": 462,
    "estimatedRegion": "the central Caribbean",
    "currentName": "Caribbean surface current",
    "direction": "NW",
    "speedKmDay": 1.0,
    "lastLat": 20.1711,
    "lastLng": -69.4778,
    "onOcean": true
  },
  "geometry": {
    "type": "LineString",
    "coordinates": [
      [
        -68.33513,
        18.55385
      ],
      [
        -68.26974,
        18.54292
      ],
      [
        -68.20435,
        18.53198
      ],
      [
        -68.13897,
        18.52105
      ],
      [
        -68.07359,
        18.51012
      ],
      [
        -68.00821,
        18.49918
      ],
      [
        -67.94284,
        18.48825
      ],
      [
        -67.87747,
        18.47732
      ],
      [
        -67.81211,
        18.46638
      ],
      [
        -67.74675,
        18.45545
      ],
      [
        -67.68139,
        18.44452
      ],
      [
        -67.61604,
        18.43358
      ],
      [
        -67.5507,
        18.42265
      ],
      [
        -67.48535,
        18.41172
      ],
      [
        -67.42001,
        18.40079
      ],
      [
        -67.35468,
        18.38985
      ],
      [
        -67.28935,
        18.37892
      ],
      [
        -67.2303,
        18.39487
      ],
      [
        -67.17595,
        18.43097
      ],
      [
        -67.19653,
        18.45418
      ],
      [
        -67.26189,
        18.46511
      ],
      [
        -67.32725,
        18.47604
      ],
      [
        -67.39262,
        18.48697
      ],
      [
        -67.45799,
        18.4979
      ],
      [
        -67.52337,
        18.50883
      ],
      [
        -67.58875,
        18.51976
      ],
      [
        -67.65413,
        18.53069
      ],
      [
        -67.71952,
        18.54162
      ],
      [
        -67.78491,
        18.55255
      ],
      [
        -67.85031,
        18.56348
      ],
      [
        -67.91571,
        18.57441
      ],
      [
        -67.98112,
        18.58534
      ],
      [
        -68.04653,
        18.59627
      ],
      [
        -68.11194,
        18.6072
      ],
      [
        -68.17736,
        18.61813
      ],
      [
        -68.24278,
        18.62906
      ],
      [
        -68.30821,
        18.63999
      ],
      [
        -68.36193,
        18.66833
      ],
      [
        -68.40005,
        18.7199
      ],
      [
        -68.43818,
        18.77147
      ],
      [
        -68.47632,
        18.82303
      ],
      [
        -68.51448,
        18.8746
      ],
      [
        -68.55265,
        18.92617
      ],
      [
        -68.59082,
        18.97774
      ],
      [
        -68.62901,
        19.0293
      ],
      [
        -68.66722,
        19.08087
      ],
      [
        -68.70543,
        19.13244
      ],
      [
        -68.74366,
        19.184
      ],
      [
        -68.78189,
        19.23557
      ],
      [
        -68.82014,
        19.28714
      ],
      [
        -68.85841,
        19.33871
      ],
      [
        -68.89668,
        19.39027
      ],
      [
        -68.93497,
        19.44184
      ],
      [
        -68.97326,
        19.49341
      ],
      [
        -69.01158,
        19.54497
      ],
      [
        -69.0499,
        19.59654
      ],
      [
        -69.08823,
        19.64811
      ],
      [
        -69.12658,
        19.69967
      ],
      [
        -69.16494,
        19.75124
      ],
      [
        -69.20331,
        19.80281
      ],
      [
        -69.2417,
        19.85438
      ],
      [
        -69.28009,
        19.90594
      ],
      [
        -69.3185,
        19.95751
      ],
      [
        -69.35693,
        20.00908
      ],
      [
        -69.39536,
        20.06064
      ],
      [
        -69.43381,
        20.11221
      ],
      [
        -69.47227,
        20.16378
      ],
      [
        -69.47776,
        20.17115
      ]
    ]
  }
}
