{
  "type": "Feature",
  "properties": {
    "dropId": "key-largo",
    "label": "Key Largo",
    "startDate": "2021-03-15",
    "endDate": "2026-05-23",
    "daysElapsed": 1895,
    "estimatedRegion": "the North Atlantic, along the Gulf Stream",
    "currentName": "Florida Current",
    "direction": "NE",
    "speedKmDay": 1.2,
    "lastLat": 39.5543,
    "lastLng": -63.243
  },
  "geometry": {
    "type": "LineString",
    "coordinates": [
      [
        -80.4473,
        25.0865
      ],
      [
        -80.3883,
        25.13992
      ],
      [
        -80.32928,
        25.19333
      ],
      [
        -80.27024,
        25.24675
      ],
      [
        -80.21116,
        25.30016
      ],
      [
        -80.15206,
        25.35358
      ],
      [
        -80.09294,
        25.40699
      ],
      [
        -80.03379,
        25.46041
      ],
      [
        -79.97461,
        25.51382
      ],
      [
        -79.91541,
        25.56724
      ],
      [
        -79.85617,
        25.62065
      ],
      [
        -79.79692,
        25.67407
      ],
      [
        -79.73763,
        25.72748
      ],
      [
        -79.67832,
        25.7809
      ],
      [
        -79.61899,
        25.83431
      ],
      [
        -79.55962,
        25.88773
      ],
      [
        -79.50023,
        25.94114
      ],
      [
        -79.44082,
        25.99456
      ],
      [
        -79.38137,
        26.04797
      ],
      [
        -79.3219,
        26.10139
      ],
      [
        -79.2624,
        26.15481
      ],
      [
        -79.20287,
        26.20822
      ],
      [
        -79.14332,
        26.26164
      ],
      [
        -79.08374,
        26.31505
      ],
      [
        -79.02413,
        26.36847
      ],
      [
        -78.9645,
        26.42188
      ],
      [
        -78.90483,
        26.4753
      ],
      [
        -78.84514,
        26.52871
      ],
      [
        -78.78542,
        26.58213
      ],
      [
        -78.72568,
        26.63554
      ],
      [
        -78.6659,
        26.68896
      ],
      [
        -78.6061,
        26.74237
      ],
      [
        -78.54627,
        26.79579
      ],
      [
        -78.48641,
        26.8492
      ],
      [
        -78.42652,
        26.90262
      ],
      [
        -78.36661,
        26.95603
      ],
      [
        -78.30666,
        27.00945
      ],
      [
        -78.24669,
        27.06286
      ],
      [
        -78.18669,
        27.11628
      ],
      [
        -78.12666,
        27.16969
      ],
      [
        -78.0666,
        27.22311
      ],
      [
        -78.00651,
        27.27652
      ],
      [
        -77.9464,
        27.32994
      ],
      [
        -77.88625,
        27.38335
      ],
      [
        -77.82608,
        27.43677
      ],
      [
        -77.76587,
        27.49018
      ],
      [
        -77.70564,
        27.5436
      ],
      [
        -77.64538,
        27.59702
      ],
      [
        -77.58509,
        27.65043
      ],
      [
        -77.52477,
        27.70385
      ],
      [
        -77.46441,
        27.75726
      ],
      [
        -77.40403,
        27.81068
      ],
      [
        -77.34363,
        27.86409
      ],
      [
        -77.28319,
        27.91751
      ],
      [
        -77.22272,
        27.97092
      ],
      [
        -77.16222,
        28.02434
      ],
      [
        -77.10169,
        28.07775
      ],
      [
        -77.04113,
        28.13117
      ],
      [
        -76.98054,
        28.18458
      ],
      [
        -76.91992,
        28.238
      ],
      [
        -76.85927,
        28.29141
      ],
      [
        -76.79859,
        28.34483
      ],
      [
        -76.73788,
        28.39824
      ],
      [
        -76.67713,
        28.45166
      ],
      [
        -76.61636,
        28.50507
      ],
      [
        -76.55556,
        28.55849
      ],
      [
        -76.49472,
        28.6119
      ],
      [
        -76.43386,
        28.66532
      ],
      [
        -76.37296,
        28.71873
      ],
      [
        -76.31204,
        28.77215
      ],
      [
        -76.25108,
        28.82556
      ],
      [
        -76.19009,
        28.87898
      ],
      [
        -76.12907,
        28.93239
      ],
      [
        -76.06801,
        28.98581
      ],
      [
        -76.00693,
        29.03922
      ],
      [
        -75.94581,
        29.09264
      ],
      [
        -75.88467,
        29.14605
      ],
      [
        -75.82349,
        29.19947
      ],
      [
        -75.76228,
        29.25288
      ],
      [
        -75.70103,
        29.3063
      ],
      [
        -75.63976,
        29.35971
      ],
      [
        -75.57845,
        29.41313
      ],
      [
        -75.51711,
        29.46654
      ],
      [
        -75.45574,
        29.51996
      ],
      [
        -75.39433,
        29.57337
      ],
      [
        -75.3329,
        29.62679
      ],
      [
        -75.27143,
        29.6802
      ],
      [
        -75.20993,
        29.73362
      ],
      [
        -75.14839,
        29.78703
      ],
      [
        -75.08682,
        29.84045
      ],
      [
        -75.02522,
        29.89386
      ],
      [
        -74.96359,
        29.94728
      ],
      [
        -74.90192,
        30.00069
      ],
      [
        -74.84022,
        30.05411
      ],
      [
        -74.77849,
        30.10752
      ],
      [
        -74.71672,
        30.16094
      ],
      [
        -74.65492,
        30.21435
      ],
      [
        -74.59309,
        30.26777
      ],
      [
        -74.53122,
        30.32118
      ],
      [
        -74.46932,
        30.3746
      ],
      [
        -74.40738,
        30.42801
      ],
      [
        -74.34542,
        30.48143
      ],
      [
        -74.28341,
        30.53484
      ],
      [
        -74.22138,
        30.58826
      ],
      [
        -74.1593,
        30.64167
      ],
      [
        -74.0972,
        30.69508
      ],
      [
        -74.03506,
        30.7485
      ],
      [
        -73.97288,
        30.80191
      ],
      [
        -73.91068,
        30.85533
      ],
      [
        -73.84843,
        30.90874
      ],
      [
        -73.78615,
        30.96216
      ],
      [
        -73.72384,
        31.01557
      ],
      [
        -73.66149,
        31.06899
      ],
      [
        -73.59911,
        31.1224
      ],
      [
        -73.53669,
        31.17582
      ],
      [
        -73.47424,
        31.22923
      ],
      [
        -73.41175,
        31.28265
      ],
      [
        -73.34922,
        31.33606
      ],
      [
        -73.28666,
        31.38948
      ],
      [
        -73.22407,
        31.44289
      ],
      [
        -73.16144,
        31.49631
      ],
      [
        -73.09877,
        31.54972
      ],
      [
        -73.03607,
        31.60314
      ],
      [
        -72.97333,
        31.65655
      ],
      [
        -72.91055,
        31.70997
      ],
      [
        -72.84774,
        31.76338
      ],
      [
        -72.7849,
        31.8168
      ],
      [
        -72.72201,
        31.87021
      ],
      [
        -72.65909,
        31.92363
      ],
      [
        -72.59613,
        31.97704
      ],
      [
        -72.53314,
        32.03046
      ],
      [
        -72.47011,
        32.08387
      ],
      [
        -72.40704,
        32.13728
      ],
      [
        -72.34394,
        32.1907
      ],
      [
        -72.2808,
        32.24411
      ],
      [
        -72.21762,
        32.29753
      ],
      [
        -72.15441,
        32.35094
      ],
      [
        -72.09115,
        32.40436
      ],
      [
        -72.02786,
        32.45777
      ],
      [
        -71.96454,
        32.51119
      ],
      [
        -71.90117,
        32.5646
      ],
      [
        -71.83777,
        32.61802
      ],
      [
        -71.77433,
        32.67143
      ],
      [
        -71.71085,
        32.72485
      ],
      [
        -71.64733,
        32.77826
      ],
      [
        -71.58378,
        32.83168
      ],
      [
        -71.52018,
        32.88509
      ],
      [
        -71.45655,
        32.93851
      ],
      [
        -71.39288,
        32.99192
      ],
      [
        -71.32917,
        33.04533
      ],
      [
        -71.26542,
        33.09875
      ],
      [
        -71.20164,
        33.15216
      ],
      [
        -71.13781,
        33.20558
      ],
      [
        -71.07395,
        33.25899
      ],
      [
        -71.01005,
        33.31241
      ],
      [
        -70.9461,
        33.36582
      ],
      [
        -70.88212,
        33.41924
      ],
      [
        -70.8181,
        33.47265
      ],
      [
        -70.75404,
        33.52607
      ],
      [
        -70.68994,
        33.57948
      ],
      [
        -70.6258,
        33.6329
      ],
      [
        -70.56162,
        33.68631
      ],
      [
        -70.4974,
        33.73972
      ],
      [
        -70.43314,
        33.79314
      ],
      [
        -70.36885,
        33.84655
      ],
      [
        -70.30451,
        33.89997
      ],
      [
        -70.24013,
        33.95338
      ],
      [
        -70.17571,
        34.0068
      ],
      [
        -70.11124,
        34.06021
      ],
      [
        -70.04674,
        34.11363
      ],
      [
        -69.9822,
        34.16704
      ],
      [
        -69.91762,
        34.22046
      ],
      [
        -69.85299,
        34.27387
      ],
      [
        -69.78833,
        34.32729
      ],
      [
        -69.72362,
        34.3807
      ],
      [
        -69.65887,
        34.43411
      ],
      [
        -69.59409,
        34.48753
      ],
      [
        -69.52926,
        34.54094
      ],
      [
        -69.46438,
        34.59436
      ],
      [
        -69.39947,
        34.64777
      ],
      [
        -69.33451,
        34.70119
      ],
      [
        -69.26952,
        34.7546
      ],
      [
        -69.20448,
        34.80802
      ],
      [
        -69.13939,
        34.86143
      ],
      [
        -69.07427,
        34.91484
      ],
      [
        -69.0091,
        34.96826
      ],
      [
        -68.94389,
        35.02167
      ],
      [
        -68.87864,
        35.07509
      ],
      [
        -68.81335,
        35.1285
      ],
      [
        -68.74801,
        35.18192
      ],
      [
        -68.68263,
        35.23533
      ],
      [
        -68.61721,
        35.28875
      ],
      [
        -68.55174,
        35.34216
      ],
      [
        -68.48623,
        35.39558
      ],
      [
        -68.42068,
        35.44899
      ],
      [
        -68.35508,
        35.5024
      ],
      [
        -68.28944,
        35.55582
      ],
      [
        -68.22376,
        35.60923
      ],
      [
        -68.15803,
        35.66265
      ],
      [
        -68.09226,
        35.71606
      ],
      [
        -68.02644,
        35.76948
      ],
      [
        -67.96058,
        35.82289
      ],
      [
        -67.89467,
        35.8763
      ],
      [
        -67.82872,
        35.92972
      ],
      [
        -67.76273,
        35.98313
      ],
      [
        -67.69669,
        36.03655
      ],
      [
        -67.63061,
        36.08996
      ],
      [
        -67.56448,
        36.14338
      ],
      [
        -67.49831,
        36.19679
      ],
      [
        -67.43209,
        36.25021
      ],
      [
        -67.36583,
        36.30362
      ],
      [
        -67.29952,
        36.35703
      ],
      [
        -67.23316,
        36.41045
      ],
      [
        -67.16676,
        36.46386
      ],
      [
        -67.10032,
        36.51728
      ],
      [
        -67.03382,
        36.57069
      ],
      [
        -66.96729,
        36.62411
      ],
      [
        -66.9007,
        36.67752
      ],
      [
        -66.83407,
        36.73093
      ],
      [
        -66.76739,
        36.78435
      ],
      [
        -66.70067,
        36.83776
      ],
      [
        -66.6339,
        36.89118
      ],
      [
        -66.56709,
        36.94459
      ],
      [
        -66.50022,
        36.99801
      ],
      [
        -66.43331,
        37.05142
      ],
      [
        -66.36635,
        37.10483
      ],
      [
        -66.29935,
        37.15825
      ],
      [
        -66.2323,
        37.21166
      ],
      [
        -66.1652,
        37.26508
      ],
      [
        -66.09805,
        37.31849
      ],
      [
        -66.03086,
        37.37191
      ],
      [
        -65.96361,
        37.42532
      ],
      [
        -65.89632,
        37.47873
      ],
      [
        -65.82898,
        37.53215
      ],
      [
        -65.7616,
        37.58556
      ],
      [
        -65.69416,
        37.63898
      ],
      [
        -65.62668,
        37.69239
      ],
      [
        -65.55914,
        37.74581
      ],
      [
        -65.49156,
        37.79922
      ],
      [
        -65.42393,
        37.85263
      ],
      [
        -65.35625,
        37.90605
      ],
      [
        -65.28852,
        37.95946
      ],
      [
        -65.22074,
        38.01288
      ],
      [
        -65.15292,
        38.06629
      ],
      [
        -65.08504,
        38.11971
      ],
      [
        -65.01711,
        38.17312
      ],
      [
        -64.94914,
        38.22653
      ],
      [
        -64.88111,
        38.27995
      ],
      [
        -64.81304,
        38.33336
      ],
      [
        -64.74491,
        38.38678
      ],
      [
        -64.67673,
        38.44019
      ],
      [
        -64.6085,
        38.4936
      ],
      [
        -64.54023,
        38.54702
      ],
      [
        -64.4719,
        38.60043
      ],
      [
        -64.40352,
        38.65385
      ],
      [
        -64.33509,
        38.70726
      ],
      [
        -64.26661,
        38.76068
      ],
      [
        -64.19807,
        38.81409
      ],
      [
        -64.12949,
        38.8675
      ],
      [
        -64.06085,
        38.92092
      ],
      [
        -63.99216,
        38.97433
      ],
      [
        -63.92343,
        39.02775
      ],
      [
        -63.85463,
        39.08116
      ],
      [
        -63.78579,
        39.13457
      ],
      [
        -63.71689,
        39.18799
      ],
      [
        -63.64795,
        39.2414
      ],
      [
        -63.57895,
        39.29482
      ],
      [
        -63.50989,
        39.34823
      ],
      [
        -63.44079,
        39.40164
      ],
      [
        -63.37163,
        39.45506
      ],
      [
        -63.30241,
        39.50847
      ],
      [
        -63.24305,
        39.55426
      ]
    ]
  }
}
