{
  "type": "Feature",
  "properties": {
    "dropId": "maldives",
    "label": "Maldives",
    "startDate": "2022-02-15",
    "endDate": "2026-05-23",
    "daysElapsed": 1558,
    "estimatedRegion": "the central Indian Ocean",
    "currentName": "Equatorial Indian Ocean drift",
    "direction": "W",
    "speedKmDay": 0.8,
    "lastLat": 2.2628,
    "lastLng": 62.4639
  },
  "geometry": {
    "type": "LineString",
    "coordinates": [
      [
        73.528,
        4.2105
      ],
      [
        73.47827,
        4.20175
      ],
      [
        73.42854,
        4.19301
      ],
      [
        73.37881,
        4.18426
      ],
      [
        73.32908,
        4.17552
      ],
      [
        73.27935,
        4.16677
      ],
      [
        73.22962,
        4.15803
      ],
      [
        73.1799,
        4.14928
      ],
      [
        73.13017,
        4.14054
      ],
      [
        73.08044,
        4.13179
      ],
      [
        73.03072,
        4.12305
      ],
      [
        72.98099,
        4.1143
      ],
      [
        72.93127,
        4.10555
      ],
      [
        72.88154,
        4.09681
      ],
      [
        72.83182,
        4.08806
      ],
      [
        72.7821,
        4.07932
      ],
      [
        72.73237,
        4.07057
      ],
      [
        72.68265,
        4.06183
      ],
      [
        72.63293,
        4.05308
      ],
      [
        72.58321,
        4.04434
      ],
      [
        72.53349,
        4.03559
      ],
      [
        72.48377,
        4.02684
      ],
      [
        72.43405,
        4.0181
      ],
      [
        72.38433,
        4.00935
      ],
      [
        72.33461,
        4.00061
      ],
      [
        72.28489,
        3.99186
      ],
      [
        72.23518,
        3.98312
      ],
      [
        72.18546,
        3.97437
      ],
      [
        72.13574,
        3.96563
      ],
      [
        72.08603,
        3.95688
      ],
      [
        72.03631,
        3.94814
      ],
      [
        71.9866,
        3.93939
      ],
      [
        71.93689,
        3.93064
      ],
      [
        71.88717,
        3.9219
      ],
      [
        71.83746,
        3.91315
      ],
      [
        71.78775,
        3.90441
      ],
      [
        71.73803,
        3.89566
      ],
      [
        71.68832,
        3.88692
      ],
      [
        71.63861,
        3.87817
      ],
      [
        71.5889,
        3.86943
      ],
      [
        71.53919,
        3.86068
      ],
      [
        71.48948,
        3.85194
      ],
      [
        71.43977,
        3.84319
      ],
      [
        71.39006,
        3.83444
      ],
      [
        71.34036,
        3.8257
      ],
      [
        71.29065,
        3.81695
      ],
      [
        71.24094,
        3.80821
      ],
      [
        71.19124,
        3.79946
      ],
      [
        71.14153,
        3.79072
      ],
      [
        71.09182,
        3.78197
      ],
      [
        71.04212,
        3.77323
      ],
      [
        70.99242,
        3.76448
      ],
      [
        70.94271,
        3.75573
      ],
      [
        70.89301,
        3.74699
      ],
      [
        70.84331,
        3.73824
      ],
      [
        70.7936,
        3.7295
      ],
      [
        70.7439,
        3.72075
      ],
      [
        70.6942,
        3.71201
      ],
      [
        70.6445,
        3.70326
      ],
      [
        70.5948,
        3.69452
      ],
      [
        70.5451,
        3.68577
      ],
      [
        70.4954,
        3.67703
      ],
      [
        70.4457,
        3.66828
      ],
      [
        70.396,
        3.65953
      ],
      [
        70.3463,
        3.65079
      ],
      [
        70.29661,
        3.64204
      ],
      [
        70.24691,
        3.6333
      ],
      [
        70.19721,
        3.62455
      ],
      [
        70.14752,
        3.61581
      ],
      [
        70.09782,
        3.60706
      ],
      [
        70.04813,
        3.59832
      ],
      [
        69.99843,
        3.58957
      ],
      [
        69.94874,
        3.58083
      ],
      [
        69.89904,
        3.57208
      ],
      [
        69.84935,
        3.56333
      ],
      [
        69.79966,
        3.55459
      ],
      [
        69.74997,
        3.54584
      ],
      [
        69.70027,
        3.5371
      ],
      [
        69.65058,
        3.52835
      ],
      [
        69.60089,
        3.51961
      ],
      [
        69.5512,
        3.51086
      ],
      [
        69.50151,
        3.50212
      ],
      [
        69.45182,
        3.49337
      ],
      [
        69.40213,
        3.48463
      ],
      [
        69.35244,
        3.47588
      ],
      [
        69.30276,
        3.46713
      ],
      [
        69.25307,
        3.45839
      ],
      [
        69.20338,
        3.44964
      ],
      [
        69.1537,
        3.4409
      ],
      [
        69.10401,
        3.43215
      ],
      [
        69.05432,
        3.42341
      ],
      [
        69.00464,
        3.41466
      ],
      [
        68.95495,
        3.40592
      ],
      [
        68.90527,
        3.39717
      ],
      [
        68.85559,
        3.38843
      ],
      [
        68.8059,
        3.37968
      ],
      [
        68.75622,
        3.37093
      ],
      [
        68.70654,
        3.36219
      ],
      [
        68.65685,
        3.35344
      ],
      [
        68.60717,
        3.3447
      ],
      [
        68.55749,
        3.33595
      ],
      [
        68.50781,
        3.32721
      ],
      [
        68.45813,
        3.31846
      ],
      [
        68.40845,
        3.30972
      ],
      [
        68.35877,
        3.30097
      ],
      [
        68.30909,
        3.29223
      ],
      [
        68.25941,
        3.28348
      ],
      [
        68.20973,
        3.27473
      ],
      [
        68.16006,
        3.26599
      ],
      [
        68.11038,
        3.25724
      ],
      [
        68.0607,
        3.2485
      ],
      [
        68.01103,
        3.23975
      ],
      [
        67.96135,
        3.23101
      ],
      [
        67.91167,
        3.22226
      ],
      [
        67.862,
        3.21352
      ],
      [
        67.81232,
        3.20477
      ],
      [
        67.76265,
        3.19603
      ],
      [
        67.71298,
        3.18728
      ],
      [
        67.6633,
        3.17853
      ],
      [
        67.61363,
        3.16979
      ],
      [
        67.56396,
        3.16104
      ],
      [
        67.51428,
        3.1523
      ],
      [
        67.46461,
        3.14355
      ],
      [
        67.41494,
        3.13481
      ],
      [
        67.36527,
        3.12606
      ],
      [
        67.3156,
        3.11732
      ],
      [
        67.26593,
        3.10857
      ],
      [
        67.21626,
        3.09983
      ],
      [
        67.16659,
        3.09108
      ],
      [
        67.11692,
        3.08233
      ],
      [
        67.06725,
        3.07359
      ],
      [
        67.01758,
        3.06484
      ],
      [
        66.96792,
        3.0561
      ],
      [
        66.91825,
        3.04735
      ],
      [
        66.86858,
        3.03861
      ],
      [
        66.81892,
        3.02986
      ],
      [
        66.76925,
        3.02112
      ],
      [
        66.71958,
        3.01237
      ],
      [
        66.66992,
        3.00363
      ],
      [
        66.62025,
        2.99488
      ],
      [
        66.57059,
        2.98614
      ],
      [
        66.52093,
        2.97739
      ],
      [
        66.47126,
        2.96864
      ],
      [
        66.4216,
        2.9599
      ],
      [
        66.37194,
        2.95115
      ],
      [
        66.32227,
        2.94241
      ],
      [
        66.27261,
        2.93366
      ],
      [
        66.22295,
        2.92492
      ],
      [
        66.17329,
        2.91617
      ],
      [
        66.12363,
        2.90743
      ],
      [
        66.07397,
        2.89868
      ],
      [
        66.02431,
        2.88994
      ],
      [
        65.97465,
        2.88119
      ],
      [
        65.92499,
        2.87244
      ],
      [
        65.87533,
        2.8637
      ],
      [
        65.82567,
        2.85495
      ],
      [
        65.77601,
        2.84621
      ],
      [
        65.72635,
        2.83746
      ],
      [
        65.6767,
        2.82872
      ],
      [
        65.62704,
        2.81997
      ],
      [
        65.57738,
        2.81123
      ],
      [
        65.52772,
        2.80248
      ],
      [
        65.47807,
        2.79374
      ],
      [
        65.42841,
        2.78499
      ],
      [
        65.37876,
        2.77624
      ],
      [
        65.3291,
        2.7675
      ],
      [
        65.27945,
        2.75875
      ],
      [
        65.22979,
        2.75001
      ],
      [
        65.18014,
        2.74126
      ],
      [
        65.13049,
        2.73252
      ],
      [
        65.08083,
        2.72377
      ],
      [
        65.03118,
        2.71503
      ],
      [
        64.98153,
        2.70628
      ],
      [
        64.93188,
        2.69754
      ],
      [
        64.88222,
        2.68879
      ],
      [
        64.83257,
        2.68005
      ],
      [
        64.78292,
        2.6713
      ],
      [
        64.73327,
        2.66255
      ],
      [
        64.68362,
        2.65381
      ],
      [
        64.63397,
        2.64506
      ],
      [
        64.58432,
        2.63632
      ],
      [
        64.53467,
        2.62757
      ],
      [
        64.48502,
        2.61883
      ],
      [
        64.43537,
        2.61008
      ],
      [
        64.38573,
        2.60134
      ],
      [
        64.33608,
        2.59259
      ],
      [
        64.28643,
        2.58385
      ],
      [
        64.23678,
        2.5751
      ],
      [
        64.18714,
        2.56635
      ],
      [
        64.13749,
        2.55761
      ],
      [
        64.08784,
        2.54886
      ],
      [
        64.0382,
        2.54012
      ],
      [
        63.98855,
        2.53137
      ],
      [
        63.93891,
        2.52263
      ],
      [
        63.88926,
        2.51388
      ],
      [
        63.83962,
        2.50514
      ],
      [
        63.78997,
        2.49639
      ],
      [
        63.74033,
        2.48765
      ],
      [
        63.69069,
        2.4789
      ],
      [
        63.64104,
        2.47016
      ],
      [
        63.5914,
        2.46141
      ],
      [
        63.54176,
        2.45266
      ],
      [
        63.49212,
        2.44392
      ],
      [
        63.44247,
        2.43517
      ],
      [
        63.39283,
        2.42643
      ],
      [
        63.34319,
        2.41768
      ],
      [
        63.29355,
        2.40894
      ],
      [
        63.24391,
        2.40019
      ],
      [
        63.19427,
        2.39145
      ],
      [
        63.14463,
        2.3827
      ],
      [
        63.09499,
        2.37396
      ],
      [
        63.04535,
        2.36521
      ],
      [
        62.99571,
        2.35647
      ],
      [
        62.94607,
        2.34772
      ],
      [
        62.89644,
        2.33897
      ],
      [
        62.8468,
        2.33023
      ],
      [
        62.79716,
        2.32148
      ],
      [
        62.74752,
        2.31274
      ],
      [
        62.69788,
        2.30399
      ],
      [
        62.64825,
        2.29525
      ],
      [
        62.59861,
        2.2865
      ],
      [
        62.54898,
        2.27776
      ],
      [
        62.49934,
        2.26901
      ],
      [
        62.46389,
        2.26276
      ]
    ]
  }
}
