{
  "type": "Feature",
  "properties": {
    "dropId": "placeholder-drop-3",
    "label": "Third Drop",
    "startDate": "2023-05-15",
    "endDate": "2026-05-23",
    "daysElapsed": 1104,
    "estimatedRegion": "open Mediterranean waters",
    "currentName": "Regional surface current",
    "direction": "SE",
    "speedKmDay": 1.8,
    "lastLat": 29.2535,
    "lastLng": 28.1112
  },
  "geometry": {
    "type": "LineString",
    "coordinates": [
      [
        12.4964,
        41.9028
      ],
      [
        12.51178,
        41.89135
      ],
      [
        12.52715,
        41.8799
      ],
      [
        12.54252,
        41.86846
      ],
      [
        12.55789,
        41.85701
      ],
      [
        12.57326,
        41.84556
      ],
      [
        12.58862,
        41.83411
      ],
      [
        12.60398,
        41.82267
      ],
      [
        12.61934,
        41.81122
      ],
      [
        12.63469,
        41.79977
      ],
      [
        12.65004,
        41.78832
      ],
      [
        12.66539,
        41.77688
      ],
      [
        12.68074,
        41.76543
      ],
      [
        12.69608,
        41.75398
      ],
      [
        12.71142,
        41.74253
      ],
      [
        12.72676,
        41.73109
      ],
      [
        12.7421,
        41.71964
      ],
      [
        12.75743,
        41.70819
      ],
      [
        12.77276,
        41.69674
      ],
      [
        12.78808,
        41.6853
      ],
      [
        12.80341,
        41.67385
      ],
      [
        12.81873,
        41.6624
      ],
      [
        12.83405,
        41.65095
      ],
      [
        12.84937,
        41.63951
      ],
      [
        12.86468,
        41.62806
      ],
      [
        12.87999,
        41.61661
      ],
      [
        12.8953,
        41.60516
      ],
      [
        12.9106,
        41.59372
      ],
      [
        12.92591,
        41.58227
      ],
      [
        12.94121,
        41.57082
      ],
      [
        12.9565,
        41.55937
      ],
      [
        12.9718,
        41.54793
      ],
      [
        12.98709,
        41.53648
      ],
      [
        13.00238,
        41.52503
      ],
      [
        13.01767,
        41.51358
      ],
      [
        13.03295,
        41.50214
      ],
      [
        13.04823,
        41.49069
      ],
      [
        13.06351,
        41.47924
      ],
      [
        13.07879,
        41.46779
      ],
      [
        13.09406,
        41.45635
      ],
      [
        13.10933,
        41.4449
      ],
      [
        13.1246,
        41.43345
      ],
      [
        13.13986,
        41.422
      ],
      [
        13.15512,
        41.41056
      ],
      [
        13.17038,
        41.39911
      ],
      [
        13.18564,
        41.38766
      ],
      [
        13.20089,
        41.37621
      ],
      [
        13.21615,
        41.36477
      ],
      [
        13.23139,
        41.35332
      ],
      [
        13.24664,
        41.34187
      ],
      [
        13.26188,
        41.33042
      ],
      [
        13.27712,
        41.31898
      ],
      [
        13.29236,
        41.30753
      ],
      [
        13.3076,
        41.29608
      ],
      [
        13.32283,
        41.28463
      ],
      [
        13.33806,
        41.27319
      ],
      [
        13.35329,
        41.26174
      ],
      [
        13.36851,
        41.25029
      ],
      [
        13.38374,
        41.23884
      ],
      [
        13.39895,
        41.2274
      ],
      [
        13.41417,
        41.21595
      ],
      [
        13.42939,
        41.2045
      ],
      [
        13.4446,
        41.19305
      ],
      [
        13.45981,
        41.18161
      ],
      [
        13.47501,
        41.17016
      ],
      [
        13.49021,
        41.15871
      ],
      [
        13.50542,
        41.14726
      ],
      [
        13.52061,
        41.13582
      ],
      [
        13.53581,
        41.12437
      ],
      [
        13.551,
        41.11292
      ],
      [
        13.56619,
        41.10147
      ],
      [
        13.58138,
        41.09003
      ],
      [
        13.59656,
        41.07858
      ],
      [
        13.61175,
        41.06713
      ],
      [
        13.62693,
        41.05568
      ],
      [
        13.6421,
        41.04424
      ],
      [
        13.65728,
        41.03279
      ],
      [
        13.67245,
        41.02134
      ],
      [
        13.68762,
        41.00989
      ],
      [
        13.70278,
        40.99845
      ],
      [
        13.71795,
        40.987
      ],
      [
        13.73311,
        40.97555
      ],
      [
        13.74827,
        40.9641
      ],
      [
        13.76342,
        40.95266
      ],
      [
        13.77858,
        40.94121
      ],
      [
        13.79373,
        40.92976
      ],
      [
        13.80888,
        40.91831
      ],
      [
        13.82402,
        40.90687
      ],
      [
        13.83916,
        40.89542
      ],
      [
        13.8543,
        40.88397
      ],
      [
        13.86944,
        40.87252
      ],
      [
        13.88458,
        40.86108
      ],
      [
        13.89971,
        40.84963
      ],
      [
        13.91484,
        40.83818
      ],
      [
        13.92997,
        40.82673
      ],
      [
        13.94509,
        40.81529
      ],
      [
        13.96021,
        40.80384
      ],
      [
        13.97533,
        40.79239
      ],
      [
        13.99045,
        40.78094
      ],
      [
        14.00556,
        40.7695
      ],
      [
        14.02067,
        40.75805
      ],
      [
        14.03578,
        40.7466
      ],
      [
        14.05089,
        40.73515
      ],
      [
        14.06599,
        40.72371
      ],
      [
        14.08109,
        40.71226
      ],
      [
        14.09619,
        40.70081
      ],
      [
        14.11129,
        40.68937
      ],
      [
        14.12638,
        40.67792
      ],
      [
        14.14147,
        40.66647
      ],
      [
        14.15656,
        40.65502
      ],
      [
        14.17164,
        40.64358
      ],
      [
        14.18673,
        40.63213
      ],
      [
        14.20181,
        40.62068
      ],
      [
        14.21689,
        40.60923
      ],
      [
        14.23196,
        40.59779
      ],
      [
        14.24703,
        40.58634
      ],
      [
        14.2621,
        40.57489
      ],
      [
        14.27717,
        40.56344
      ],
      [
        14.29224,
        40.552
      ],
      [
        14.3073,
        40.54055
      ],
      [
        14.32236,
        40.5291
      ],
      [
        14.33741,
        40.51765
      ],
      [
        14.35247,
        40.50621
      ],
      [
        14.36752,
        40.49476
      ],
      [
        14.38257,
        40.48331
      ],
      [
        14.39762,
        40.47186
      ],
      [
        14.41266,
        40.46042
      ],
      [
        14.4277,
        40.44897
      ],
      [
        14.44274,
        40.43752
      ],
      [
        14.45778,
        40.42607
      ],
      [
        14.47281,
        40.41463
      ],
      [
        14.48784,
        40.40318
      ],
      [
        14.50287,
        40.39173
      ],
      [
        14.5179,
        40.38028
      ],
      [
        14.53292,
        40.36884
      ],
      [
        14.54794,
        40.35739
      ],
      [
        14.56296,
        40.34594
      ],
      [
        14.57798,
        40.33449
      ],
      [
        14.59299,
        40.32305
      ],
      [
        14.608,
        40.3116
      ],
      [
        14.62301,
        40.30015
      ],
      [
        14.63802,
        40.2887
      ],
      [
        14.65302,
        40.27726
      ],
      [
        14.66802,
        40.26581
      ],
      [
        14.68302,
        40.25436
      ],
      [
        14.69802,
        40.24291
      ],
      [
        14.71301,
        40.23147
      ],
      [
        14.728,
        40.22002
      ],
      [
        14.74299,
        40.20857
      ],
      [
        14.75798,
        40.19712
      ],
      [
        14.77296,
        40.18568
      ],
      [
        14.78794,
        40.17423
      ],
      [
        14.80292,
        40.16278
      ],
      [
        14.81789,
        40.15133
      ],
      [
        14.83287,
        40.13989
      ],
      [
        14.84784,
        40.12844
      ],
      [
        14.8628,
        40.11699
      ],
      [
        14.87777,
        40.10554
      ],
      [
        14.89273,
        40.0941
      ],
      [
        14.90769,
        40.08265
      ],
      [
        14.92265,
        40.0712
      ],
      [
        14.93761,
        40.05975
      ],
      [
        14.95256,
        40.04831
      ],
      [
        14.96751,
        40.03686
      ],
      [
        14.98246,
        40.02541
      ],
      [
        14.9974,
        40.01396
      ],
      [
        15.01235,
        40.00252
      ],
      [
        15.02729,
        39.99107
      ],
      [
        15.04222,
        39.97962
      ],
      [
        15.05716,
        39.96817
      ],
      [
        15.07209,
        39.95673
      ],
      [
        15.08702,
        39.94528
      ],
      [
        15.10195,
        39.93383
      ],
      [
        15.11688,
        39.92238
      ],
      [
        15.1318,
        39.91094
      ],
      [
        15.14672,
        39.89949
      ],
      [
        15.16164,
        39.88804
      ],
      [
        15.17655,
        39.8766
      ],
      [
        15.19147,
        39.86515
      ],
      [
        15.20638,
        39.8537
      ],
      [
        15.22128,
        39.84225
      ],
      [
        15.23619,
        39.83081
      ],
      [
        15.25109,
        39.81936
      ],
      [
        15.26599,
        39.80791
      ],
      [
        15.28089,
        39.79646
      ],
      [
        15.29579,
        39.78502
      ],
      [
        15.31068,
        39.77357
      ],
      [
        15.32557,
        39.76212
      ],
      [
        15.34046,
        39.75067
      ],
      [
        15.35534,
        39.73923
      ],
      [
        15.37023,
        39.72778
      ],
      [
        15.38511,
        39.71633
      ],
      [
        15.39999,
        39.70488
      ],
      [
        15.41486,
        39.69344
      ],
      [
        15.42974,
        39.68199
      ],
      [
        15.44461,
        39.67054
      ],
      [
        15.45947,
        39.65909
      ],
      [
        15.47434,
        39.64765
      ],
      [
        15.4892,
        39.6362
      ],
      [
        15.50406,
        39.62475
      ],
      [
        15.51892,
        39.6133
      ],
      [
        15.53378,
        39.60186
      ],
      [
        15.54863,
        39.59041
      ],
      [
        15.56348,
        39.57896
      ],
      [
        15.57833,
        39.56751
      ],
      [
        15.59318,
        39.55607
      ],
      [
        15.60802,
        39.54462
      ],
      [
        15.62286,
        39.53317
      ],
      [
        15.6377,
        39.52172
      ],
      [
        15.65254,
        39.51028
      ],
      [
        15.66737,
        39.49883
      ],
      [
        15.68221,
        39.48738
      ],
      [
        15.69703,
        39.47593
      ],
      [
        15.71186,
        39.46449
      ],
      [
        15.72669,
        39.45304
      ],
      [
        15.74151,
        39.44159
      ],
      [
        15.75633,
        39.43014
      ],
      [
        15.77114,
        39.4187
      ],
      [
        15.78596,
        39.40725
      ],
      [
        15.80077,
        39.3958
      ],
      [
        15.81558,
        39.38436
      ],
      [
        15.83039,
        39.37291
      ],
      [
        15.84519,
        39.36146
      ],
      [
        15.85999,
        39.35001
      ],
      [
        15.87479,
        39.33857
      ],
      [
        15.88959,
        39.32712
      ],
      [
        15.90439,
        39.31567
      ],
      [
        15.91918,
        39.30422
      ],
      [
        15.93397,
        39.29278
      ],
      [
        15.94876,
        39.28133
      ],
      [
        15.96354,
        39.26988
      ],
      [
        15.97833,
        39.25843
      ],
      [
        15.99311,
        39.24699
      ],
      [
        16.00789,
        39.23554
      ],
      [
        16.02266,
        39.22409
      ],
      [
        16.03743,
        39.21264
      ],
      [
        16.05221,
        39.2012
      ],
      [
        16.06697,
        39.18975
      ],
      [
        16.08174,
        39.1783
      ],
      [
        16.0965,
        39.16685
      ],
      [
        16.11127,
        39.15541
      ],
      [
        16.12602,
        39.14396
      ],
      [
        16.14078,
        39.13251
      ],
      [
        16.15553,
        39.12106
      ],
      [
        16.17029,
        39.10962
      ],
      [
        16.18504,
        39.09817
      ],
      [
        16.19978,
        39.08672
      ],
      [
        16.21453,
        39.07527
      ],
      [
        16.22927,
        39.06383
      ],
      [
        16.24401,
        39.05238
      ],
      [
        16.25875,
        39.04093
      ],
      [
        16.27348,
        39.02948
      ],
      [
        16.28821,
        39.01804
      ],
      [
        16.30294,
        39.00659
      ],
      [
        16.31767,
        38.99514
      ],
      [
        16.3324,
        38.9837
      ],
      [
        16.34712,
        38.97225
      ],
      [
        16.36184,
        38.9608
      ],
      [
        16.37656,
        38.94935
      ],
      [
        16.39128,
        38.93791
      ],
      [
        16.40599,
        38.92646
      ],
      [
        16.4207,
        38.91501
      ],
      [
        16.43541,
        38.90356
      ],
      [
        16.45012,
        38.89212
      ],
      [
        16.46482,
        38.88067
      ],
      [
        16.47952,
        38.86922
      ],
      [
        16.49422,
        38.85777
      ],
      [
        16.50892,
        38.84633
      ],
      [
        16.52361,
        38.83488
      ],
      [
        16.53831,
        38.82343
      ],
      [
        16.553,
        38.81198
      ],
      [
        16.56768,
        38.80054
      ],
      [
        16.58237,
        38.78909
      ],
      [
        16.59705,
        38.77764
      ],
      [
        16.61173,
        38.76619
      ],
      [
        16.62641,
        38.75475
      ],
      [
        16.64109,
        38.7433
      ],
      [
        16.65576,
        38.73185
      ],
      [
        16.67043,
        38.7204
      ],
      [
        16.6851,
        38.70896
      ],
      [
        16.69977,
        38.69751
      ],
      [
        16.71443,
        38.68606
      ],
      [
        16.72909,
        38.67461
      ],
      [
        16.74375,
        38.66317
      ],
      [
        16.75841,
        38.65172
      ],
      [
        16.77306,
        38.64027
      ],
      [
        16.78771,
        38.62883
      ],
      [
        16.80236,
        38.61738
      ],
      [
        16.81701,
        38.60593
      ],
      [
        16.83166,
        38.59448
      ],
      [
        16.8463,
        38.58304
      ],
      [
        16.86094,
        38.57159
      ],
      [
        16.87558,
        38.56014
      ],
      [
        16.89022,
        38.54869
      ],
      [
        16.90485,
        38.53725
      ],
      [
        16.91948,
        38.5258
      ],
      [
        16.93411,
        38.51435
      ],
      [
        16.94874,
        38.5029
      ],
      [
        16.96336,
        38.49146
      ],
      [
        16.97798,
        38.48001
      ],
      [
        16.9926,
        38.46856
      ],
      [
        17.00722,
        38.45711
      ],
      [
        17.02183,
        38.44567
      ],
      [
        17.03645,
        38.43422
      ],
      [
        17.05106,
        38.42277
      ],
      [
        17.06567,
        38.41132
      ],
      [
        17.08027,
        38.39988
      ],
      [
        17.09488,
        38.38843
      ],
      [
        17.10948,
        38.37698
      ],
      [
        17.12408,
        38.36553
      ],
      [
        17.13867,
        38.35409
      ],
      [
        17.15327,
        38.34264
      ],
      [
        17.16786,
        38.33119
      ],
      [
        17.18245,
        38.31975
      ],
      [
        17.19704,
        38.3083
      ],
      [
        17.21162,
        38.29685
      ],
      [
        17.2262,
        38.2854
      ],
      [
        17.24078,
        38.27396
      ],
      [
        17.25536,
        38.26251
      ],
      [
        17.26994,
        38.25106
      ],
      [
        17.28451,
        38.23961
      ],
      [
        17.29908,
        38.22817
      ],
      [
        17.31365,
        38.21672
      ],
      [
        17.32822,
        38.20527
      ],
      [
        17.34278,
        38.19382
      ],
      [
        17.35734,
        38.18238
      ],
      [
        17.3719,
        38.17093
      ],
      [
        17.38646,
        38.15948
      ],
      [
        17.40102,
        38.14803
      ],
      [
        17.41557,
        38.13659
      ],
      [
        17.43012,
        38.12514
      ],
      [
        17.44467,
        38.11369
      ],
      [
        17.45922,
        38.10224
      ],
      [
        17.47376,
        38.0908
      ],
      [
        17.4883,
        38.07935
      ],
      [
        17.50284,
        38.0679
      ],
      [
        17.51738,
        38.05646
      ],
      [
        17.53191,
        38.04501
      ],
      [
        17.54644,
        38.03356
      ],
      [
        17.56097,
        38.02211
      ],
      [
        17.5755,
        38.01067
      ],
      [
        17.59003,
        37.99922
      ],
      [
        17.60455,
        37.98777
      ],
      [
        17.61907,
        37.97632
      ],
      [
        17.63359,
        37.96488
      ],
      [
        17.64811,
        37.95343
      ],
      [
        17.66262,
        37.94198
      ],
      [
        17.67713,
        37.93053
      ],
      [
        17.69164,
        37.91909
      ],
      [
        17.70615,
        37.90764
      ],
      [
        17.72066,
        37.89619
      ],
      [
        17.73516,
        37.88474
      ],
      [
        17.74966,
        37.8733
      ],
      [
        17.76416,
        37.86185
      ],
      [
        17.77866,
        37.8504
      ],
      [
        17.79315,
        37.83895
      ],
      [
        17.80764,
        37.82751
      ],
      [
        17.82213,
        37.81606
      ],
      [
        17.83662,
        37.80461
      ],
      [
        17.8511,
        37.79317
      ],
      [
        17.86559,
        37.78172
      ],
      [
        17.88007,
        37.77027
      ],
      [
        17.89454,
        37.75882
      ],
      [
        17.90902,
        37.74738
      ],
      [
        17.92349,
        37.73593
      ],
      [
        17.93797,
        37.72448
      ],
      [
        17.95244,
        37.71303
      ],
      [
        17.9669,
        37.70159
      ],
      [
        17.98137,
        37.69014
      ],
      [
        17.99583,
        37.67869
      ],
      [
        18.01029,
        37.66724
      ],
      [
        18.02475,
        37.6558
      ],
      [
        18.03921,
        37.64435
      ],
      [
        18.05366,
        37.6329
      ],
      [
        18.06811,
        37.62145
      ],
      [
        18.08256,
        37.61001
      ],
      [
        18.09701,
        37.59856
      ],
      [
        18.11145,
        37.58711
      ],
      [
        18.12589,
        37.57567
      ],
      [
        18.14033,
        37.56422
      ],
      [
        18.15477,
        37.55277
      ],
      [
        18.16921,
        37.54132
      ],
      [
        18.18364,
        37.52988
      ],
      [
        18.19807,
        37.51843
      ],
      [
        18.2125,
        37.50698
      ],
      [
        18.22693,
        37.49553
      ],
      [
        18.24136,
        37.48409
      ],
      [
        18.25578,
        37.47264
      ],
      [
        18.2702,
        37.46119
      ],
      [
        18.28462,
        37.44974
      ],
      [
        18.29903,
        37.4383
      ],
      [
        18.31345,
        37.42685
      ],
      [
        18.32786,
        37.4154
      ],
      [
        18.34227,
        37.40395
      ],
      [
        18.35668,
        37.39251
      ],
      [
        18.37108,
        37.38106
      ],
      [
        18.38548,
        37.36961
      ],
      [
        18.39988,
        37.35817
      ],
      [
        18.41428,
        37.34672
      ],
      [
        18.42868,
        37.33527
      ],
      [
        18.44307,
        37.32382
      ],
      [
        18.45747,
        37.31238
      ],
      [
        18.47185,
        37.30093
      ],
      [
        18.48624,
        37.28948
      ],
      [
        18.50063,
        37.27803
      ],
      [
        18.51501,
        37.26659
      ],
      [
        18.52939,
        37.25514
      ],
      [
        18.54377,
        37.24369
      ],
      [
        18.55815,
        37.23224
      ],
      [
        18.57252,
        37.2208
      ],
      [
        18.58689,
        37.20935
      ],
      [
        18.60126,
        37.1979
      ],
      [
        18.61563,
        37.18645
      ],
      [
        18.63,
        37.17501
      ],
      [
        18.64436,
        37.16356
      ],
      [
        18.65872,
        37.15211
      ],
      [
        18.67308,
        37.14067
      ],
      [
        18.68744,
        37.12922
      ],
      [
        18.70179,
        37.11777
      ],
      [
        18.71615,
        37.10632
      ],
      [
        18.7305,
        37.09488
      ],
      [
        18.74484,
        37.08343
      ],
      [
        18.75919,
        37.07198
      ],
      [
        18.77353,
        37.06053
      ],
      [
        18.78788,
        37.04909
      ],
      [
        18.80222,
        37.03764
      ],
      [
        18.81655,
        37.02619
      ],
      [
        18.83089,
        37.01474
      ],
      [
        18.84522,
        37.0033
      ],
      [
        18.85955,
        36.99185
      ],
      [
        18.87388,
        36.9804
      ],
      [
        18.88821,
        36.96895
      ],
      [
        18.90253,
        36.95751
      ],
      [
        18.91686,
        36.94606
      ],
      [
        18.93118,
        36.93461
      ],
      [
        18.94549,
        36.92317
      ],
      [
        18.95981,
        36.91172
      ],
      [
        18.97412,
        36.90027
      ],
      [
        18.98844,
        36.88882
      ],
      [
        19.00275,
        36.87738
      ],
      [
        19.01705,
        36.86593
      ],
      [
        19.03136,
        36.85448
      ],
      [
        19.04566,
        36.84303
      ],
      [
        19.05996,
        36.83159
      ],
      [
        19.07426,
        36.82014
      ],
      [
        19.08856,
        36.80869
      ],
      [
        19.10285,
        36.79724
      ],
      [
        19.11714,
        36.7858
      ],
      [
        19.13143,
        36.77435
      ],
      [
        19.14572,
        36.7629
      ],
      [
        19.16001,
        36.75146
      ],
      [
        19.17429,
        36.74001
      ],
      [
        19.18857,
        36.72856
      ],
      [
        19.20285,
        36.71711
      ],
      [
        19.21713,
        36.70567
      ],
      [
        19.23141,
        36.69422
      ],
      [
        19.24568,
        36.68277
      ],
      [
        19.25995,
        36.67132
      ],
      [
        19.27422,
        36.65988
      ],
      [
        19.28849,
        36.64843
      ],
      [
        19.30275,
        36.63698
      ],
      [
        19.31701,
        36.62553
      ],
      [
        19.33127,
        36.61409
      ],
      [
        19.34553,
        36.60264
      ],
      [
        19.35979,
        36.59119
      ],
      [
        19.37404,
        36.57974
      ],
      [
        19.3883,
        36.5683
      ],
      [
        19.40255,
        36.55685
      ],
      [
        19.41679,
        36.5454
      ],
      [
        19.43104,
        36.53396
      ],
      [
        19.44528,
        36.52251
      ],
      [
        19.45952,
        36.51106
      ],
      [
        19.47376,
        36.49961
      ],
      [
        19.488,
        36.48817
      ],
      [
        19.50224,
        36.47672
      ],
      [
        19.51647,
        36.46527
      ],
      [
        19.5307,
        36.45382
      ],
      [
        19.54493,
        36.44238
      ],
      [
        19.55916,
        36.43093
      ],
      [
        19.57338,
        36.41948
      ],
      [
        19.5876,
        36.40803
      ],
      [
        19.60182,
        36.39659
      ],
      [
        19.61604,
        36.38514
      ],
      [
        19.63026,
        36.37369
      ],
      [
        19.64447,
        36.36225
      ],
      [
        19.65868,
        36.3508
      ],
      [
        19.67289,
        36.33935
      ],
      [
        19.6871,
        36.3279
      ],
      [
        19.70131,
        36.31646
      ],
      [
        19.71551,
        36.30501
      ],
      [
        19.72971,
        36.29356
      ],
      [
        19.74391,
        36.28211
      ],
      [
        19.75811,
        36.27067
      ],
      [
        19.77231,
        36.25922
      ],
      [
        19.7865,
        36.24777
      ],
      [
        19.80069,
        36.23632
      ],
      [
        19.81488,
        36.22488
      ],
      [
        19.82907,
        36.21343
      ],
      [
        19.84325,
        36.20198
      ],
      [
        19.85744,
        36.19054
      ],
      [
        19.87162,
        36.17909
      ],
      [
        19.8858,
        36.16764
      ],
      [
        19.89997,
        36.15619
      ],
      [
        19.91415,
        36.14475
      ],
      [
        19.92832,
        36.1333
      ],
      [
        19.94249,
        36.12185
      ],
      [
        19.95666,
        36.1104
      ],
      [
        19.97083,
        36.09896
      ],
      [
        19.98499,
        36.08751
      ],
      [
        19.99915,
        36.07606
      ],
      [
        20.01331,
        36.06461
      ],
      [
        20.02747,
        36.05317
      ],
      [
        20.04163,
        36.04172
      ],
      [
        20.05578,
        36.03027
      ],
      [
        20.06993,
        36.01883
      ],
      [
        20.08408,
        36.00738
      ],
      [
        20.09823,
        35.99593
      ],
      [
        20.11238,
        35.98448
      ],
      [
        20.12652,
        35.97304
      ],
      [
        20.14066,
        35.96159
      ],
      [
        20.1548,
        35.95014
      ],
      [
        20.16894,
        35.93869
      ],
      [
        20.18308,
        35.92725
      ],
      [
        20.19721,
        35.9158
      ],
      [
        20.21134,
        35.90435
      ],
      [
        20.22547,
        35.8929
      ],
      [
        20.2396,
        35.88146
      ],
      [
        20.25372,
        35.87001
      ],
      [
        20.26785,
        35.85856
      ],
      [
        20.28197,
        35.84712
      ],
      [
        20.29609,
        35.83567
      ],
      [
        20.3102,
        35.82422
      ],
      [
        20.32432,
        35.81277
      ],
      [
        20.33843,
        35.80133
      ],
      [
        20.35254,
        35.78988
      ],
      [
        20.36665,
        35.77843
      ],
      [
        20.38076,
        35.76698
      ],
      [
        20.39486,
        35.75554
      ],
      [
        20.40897,
        35.74409
      ],
      [
        20.42307,
        35.73264
      ],
      [
        20.43717,
        35.7212
      ],
      [
        20.45126,
        35.70975
      ],
      [
        20.46536,
        35.6983
      ],
      [
        20.47945,
        35.68685
      ],
      [
        20.49354,
        35.67541
      ],
      [
        20.50763,
        35.66396
      ],
      [
        20.52172,
        35.65251
      ],
      [
        20.5358,
        35.64106
      ],
      [
        20.54989,
        35.62962
      ],
      [
        20.56397,
        35.61817
      ],
      [
        20.57805,
        35.60672
      ],
      [
        20.59212,
        35.59527
      ],
      [
        20.6062,
        35.58383
      ],
      [
        20.62027,
        35.57238
      ],
      [
        20.63434,
        35.56093
      ],
      [
        20.64841,
        35.54949
      ],
      [
        20.66248,
        35.53804
      ],
      [
        20.67654,
        35.52659
      ],
      [
        20.6906,
        35.51514
      ],
      [
        20.70466,
        35.5037
      ],
      [
        20.71872,
        35.49225
      ],
      [
        20.73278,
        35.4808
      ],
      [
        20.74683,
        35.46935
      ],
      [
        20.76089,
        35.45791
      ],
      [
        20.77494,
        35.44646
      ],
      [
        20.78899,
        35.43501
      ],
      [
        20.80303,
        35.42356
      ],
      [
        20.81708,
        35.41212
      ],
      [
        20.83112,
        35.40067
      ],
      [
        20.84516,
        35.38922
      ],
      [
        20.8592,
        35.37778
      ],
      [
        20.87324,
        35.36633
      ],
      [
        20.88727,
        35.35488
      ],
      [
        20.9013,
        35.34343
      ],
      [
        20.91533,
        35.33199
      ],
      [
        20.92936,
        35.32054
      ],
      [
        20.94339,
        35.30909
      ],
      [
        20.95742,
        35.29764
      ],
      [
        20.97144,
        35.2862
      ],
      [
        20.98546,
        35.27475
      ],
      [
        20.99948,
        35.2633
      ],
      [
        21.01349,
        35.25186
      ],
      [
        21.02751,
        35.24041
      ],
      [
        21.04152,
        35.22896
      ],
      [
        21.05553,
        35.21751
      ],
      [
        21.06954,
        35.20607
      ],
      [
        21.08355,
        35.19462
      ],
      [
        21.09755,
        35.18317
      ],
      [
        21.11156,
        35.17172
      ],
      [
        21.12556,
        35.16028
      ],
      [
        21.13956,
        35.14883
      ],
      [
        21.15355,
        35.13738
      ],
      [
        21.16755,
        35.12594
      ],
      [
        21.18154,
        35.11449
      ],
      [
        21.19553,
        35.10304
      ],
      [
        21.20952,
        35.09159
      ],
      [
        21.22351,
        35.08015
      ],
      [
        21.2375,
        35.0687
      ],
      [
        21.25148,
        35.05725
      ],
      [
        21.26546,
        35.0458
      ],
      [
        21.27944,
        35.03436
      ],
      [
        21.29342,
        35.02291
      ],
      [
        21.30739,
        35.01146
      ],
      [
        21.32137,
        35.00001
      ],
      [
        21.33534,
        34.98857
      ],
      [
        21.34931,
        34.97712
      ],
      [
        21.36328,
        34.96567
      ],
      [
        21.37724,
        34.95423
      ],
      [
        21.39121,
        34.94278
      ],
      [
        21.40517,
        34.93133
      ],
      [
        21.41913,
        34.91988
      ],
      [
        21.43309,
        34.90844
      ],
      [
        21.44704,
        34.89699
      ],
      [
        21.461,
        34.88554
      ],
      [
        21.47495,
        34.87409
      ],
      [
        21.4889,
        34.86265
      ],
      [
        21.50285,
        34.8512
      ],
      [
        21.51679,
        34.83975
      ],
      [
        21.53074,
        34.82831
      ],
      [
        21.54468,
        34.81686
      ],
      [
        21.55862,
        34.80541
      ],
      [
        21.57256,
        34.79396
      ],
      [
        21.5865,
        34.78252
      ],
      [
        21.60043,
        34.77107
      ],
      [
        21.61436,
        34.75962
      ],
      [
        21.62829,
        34.74817
      ],
      [
        21.64222,
        34.73673
      ],
      [
        21.65615,
        34.72528
      ],
      [
        21.67007,
        34.71383
      ],
      [
        21.684,
        34.70239
      ],
      [
        21.69792,
        34.69094
      ],
      [
        21.71184,
        34.67949
      ],
      [
        21.72576,
        34.66804
      ],
      [
        21.73967,
        34.6566
      ],
      [
        21.75358,
        34.64515
      ],
      [
        21.7675,
        34.6337
      ],
      [
        21.78141,
        34.62225
      ],
      [
        21.79531,
        34.61081
      ],
      [
        21.80922,
        34.59936
      ],
      [
        21.82312,
        34.58791
      ],
      [
        21.83703,
        34.57647
      ],
      [
        21.85093,
        34.56502
      ],
      [
        21.86482,
        34.55357
      ],
      [
        21.87872,
        34.54212
      ],
      [
        21.89261,
        34.53068
      ],
      [
        21.90651,
        34.51923
      ],
      [
        21.9204,
        34.50778
      ],
      [
        21.93429,
        34.49633
      ],
      [
        21.94817,
        34.48489
      ],
      [
        21.96206,
        34.47344
      ],
      [
        21.97594,
        34.46199
      ],
      [
        21.98982,
        34.45054
      ],
      [
        22.0037,
        34.4391
      ],
      [
        22.01758,
        34.42765
      ],
      [
        22.03145,
        34.4162
      ],
      [
        22.04533,
        34.40476
      ],
      [
        22.0592,
        34.39331
      ],
      [
        22.07307,
        34.38186
      ],
      [
        22.08694,
        34.37041
      ],
      [
        22.1008,
        34.35897
      ],
      [
        22.11467,
        34.34752
      ],
      [
        22.12853,
        34.33607
      ],
      [
        22.14239,
        34.32462
      ],
      [
        22.15625,
        34.31318
      ],
      [
        22.1701,
        34.30173
      ],
      [
        22.18396,
        34.29028
      ],
      [
        22.19781,
        34.27884
      ],
      [
        22.21166,
        34.26739
      ],
      [
        22.22551,
        34.25594
      ],
      [
        22.23936,
        34.24449
      ],
      [
        22.2532,
        34.23305
      ],
      [
        22.26704,
        34.2216
      ],
      [
        22.28089,
        34.21015
      ],
      [
        22.29472,
        34.1987
      ],
      [
        22.30856,
        34.18726
      ],
      [
        22.3224,
        34.17581
      ],
      [
        22.33623,
        34.16436
      ],
      [
        22.35006,
        34.15292
      ],
      [
        22.36389,
        34.14147
      ],
      [
        22.37772,
        34.13002
      ],
      [
        22.39155,
        34.11857
      ],
      [
        22.40537,
        34.10713
      ],
      [
        22.4192,
        34.09568
      ],
      [
        22.43302,
        34.08423
      ],
      [
        22.44683,
        34.07278
      ],
      [
        22.46065,
        34.06134
      ],
      [
        22.47447,
        34.04989
      ],
      [
        22.48828,
        34.03844
      ],
      [
        22.50209,
        34.027
      ],
      [
        22.5159,
        34.01555
      ],
      [
        22.52971,
        34.0041
      ],
      [
        22.54351,
        33.99265
      ],
      [
        22.55732,
        33.98121
      ],
      [
        22.57112,
        33.96976
      ],
      [
        22.58492,
        33.95831
      ],
      [
        22.59872,
        33.94687
      ],
      [
        22.61252,
        33.93542
      ],
      [
        22.62631,
        33.92397
      ],
      [
        22.6401,
        33.91252
      ],
      [
        22.65389,
        33.90108
      ],
      [
        22.66768,
        33.88963
      ],
      [
        22.68147,
        33.87818
      ],
      [
        22.69526,
        33.86673
      ],
      [
        22.70904,
        33.85529
      ],
      [
        22.72282,
        33.84384
      ],
      [
        22.7366,
        33.83239
      ],
      [
        22.75038,
        33.82095
      ],
      [
        22.76415,
        33.8095
      ],
      [
        22.77793,
        33.79805
      ],
      [
        22.7917,
        33.7866
      ],
      [
        22.80547,
        33.77516
      ],
      [
        22.81924,
        33.76371
      ],
      [
        22.83301,
        33.75226
      ],
      [
        22.84677,
        33.74081
      ],
      [
        22.86054,
        33.72937
      ],
      [
        22.8743,
        33.71792
      ],
      [
        22.88806,
        33.70647
      ],
      [
        22.90181,
        33.69503
      ],
      [
        22.91557,
        33.68358
      ],
      [
        22.92932,
        33.67213
      ],
      [
        22.94308,
        33.66068
      ],
      [
        22.95683,
        33.64924
      ],
      [
        22.97058,
        33.63779
      ],
      [
        22.98432,
        33.62634
      ],
      [
        22.99807,
        33.61489
      ],
      [
        23.01181,
        33.60345
      ],
      [
        23.02555,
        33.592
      ],
      [
        23.03929,
        33.58055
      ],
      [
        23.05303,
        33.56911
      ],
      [
        23.06677,
        33.55766
      ],
      [
        23.0805,
        33.54621
      ],
      [
        23.09423,
        33.53476
      ],
      [
        23.10796,
        33.52332
      ],
      [
        23.12169,
        33.51187
      ],
      [
        23.13542,
        33.50042
      ],
      [
        23.14914,
        33.48897
      ],
      [
        23.16287,
        33.47753
      ],
      [
        23.17659,
        33.46608
      ],
      [
        23.19031,
        33.45463
      ],
      [
        23.20402,
        33.44319
      ],
      [
        23.21774,
        33.43174
      ],
      [
        23.23145,
        33.42029
      ],
      [
        23.24517,
        33.40884
      ],
      [
        23.25888,
        33.3974
      ],
      [
        23.27259,
        33.38595
      ],
      [
        23.28629,
        33.3745
      ],
      [
        23.3,
        33.36305
      ],
      [
        23.3137,
        33.35161
      ],
      [
        23.3274,
        33.34016
      ],
      [
        23.3411,
        33.32871
      ],
      [
        23.3548,
        33.31727
      ],
      [
        23.3685,
        33.30582
      ],
      [
        23.38219,
        33.29437
      ],
      [
        23.39588,
        33.28292
      ],
      [
        23.40957,
        33.27148
      ],
      [
        23.42326,
        33.26003
      ],
      [
        23.43695,
        33.24858
      ],
      [
        23.45063,
        33.23714
      ],
      [
        23.46432,
        33.22569
      ],
      [
        23.478,
        33.21424
      ],
      [
        23.49168,
        33.20279
      ],
      [
        23.50536,
        33.19135
      ],
      [
        23.51903,
        33.1799
      ],
      [
        23.53271,
        33.16845
      ],
      [
        23.54638,
        33.157
      ],
      [
        23.56005,
        33.14556
      ],
      [
        23.57372,
        33.13411
      ],
      [
        23.58739,
        33.12266
      ],
      [
        23.60105,
        33.11122
      ],
      [
        23.61472,
        33.09977
      ],
      [
        23.62838,
        33.08832
      ],
      [
        23.64204,
        33.07687
      ],
      [
        23.6557,
        33.06543
      ],
      [
        23.66936,
        33.05398
      ],
      [
        23.68301,
        33.04253
      ],
      [
        23.69666,
        33.03108
      ],
      [
        23.71031,
        33.01964
      ],
      [
        23.72396,
        33.00819
      ],
      [
        23.73761,
        32.99674
      ],
      [
        23.75126,
        32.9853
      ],
      [
        23.7649,
        32.97385
      ],
      [
        23.77855,
        32.9624
      ],
      [
        23.79219,
        32.95095
      ],
      [
        23.80583,
        32.93951
      ],
      [
        23.81946,
        32.92806
      ],
      [
        23.8331,
        32.91661
      ],
      [
        23.84673,
        32.90517
      ],
      [
        23.86036,
        32.89372
      ],
      [
        23.87399,
        32.88227
      ],
      [
        23.88762,
        32.87082
      ],
      [
        23.90125,
        32.85938
      ],
      [
        23.91487,
        32.84793
      ],
      [
        23.9285,
        32.83648
      ],
      [
        23.94212,
        32.82503
      ],
      [
        23.95574,
        32.81359
      ],
      [
        23.96936,
        32.80214
      ],
      [
        23.98297,
        32.79069
      ],
      [
        23.99659,
        32.77925
      ],
      [
        24.0102,
        32.7678
      ],
      [
        24.02381,
        32.75635
      ],
      [
        24.03742,
        32.7449
      ],
      [
        24.05103,
        32.73346
      ],
      [
        24.06463,
        32.72201
      ],
      [
        24.07824,
        32.71056
      ],
      [
        24.09184,
        32.69912
      ],
      [
        24.10544,
        32.68767
      ],
      [
        24.11904,
        32.67622
      ],
      [
        24.13264,
        32.66477
      ],
      [
        24.14623,
        32.65333
      ],
      [
        24.15982,
        32.64188
      ],
      [
        24.17342,
        32.63043
      ],
      [
        24.18701,
        32.61898
      ],
      [
        24.20059,
        32.60754
      ],
      [
        24.21418,
        32.59609
      ],
      [
        24.22777,
        32.58464
      ],
      [
        24.24135,
        32.5732
      ],
      [
        24.25493,
        32.56175
      ],
      [
        24.26851,
        32.5503
      ],
      [
        24.28209,
        32.53885
      ],
      [
        24.29566,
        32.52741
      ],
      [
        24.30924,
        32.51596
      ],
      [
        24.32281,
        32.50451
      ],
      [
        24.33638,
        32.49307
      ],
      [
        24.34995,
        32.48162
      ],
      [
        24.36352,
        32.47017
      ],
      [
        24.37708,
        32.45872
      ],
      [
        24.39065,
        32.44728
      ],
      [
        24.40421,
        32.43583
      ],
      [
        24.41777,
        32.42438
      ],
      [
        24.43133,
        32.41293
      ],
      [
        24.44489,
        32.40149
      ],
      [
        24.45844,
        32.39004
      ],
      [
        24.472,
        32.37859
      ],
      [
        24.48555,
        32.36715
      ],
      [
        24.4991,
        32.3557
      ],
      [
        24.51265,
        32.34425
      ],
      [
        24.52619,
        32.3328
      ],
      [
        24.53974,
        32.32136
      ],
      [
        24.55328,
        32.30991
      ],
      [
        24.56682,
        32.29846
      ],
      [
        24.58036,
        32.28702
      ],
      [
        24.5939,
        32.27557
      ],
      [
        24.60744,
        32.26412
      ],
      [
        24.62097,
        32.25267
      ],
      [
        24.63451,
        32.24123
      ],
      [
        24.64804,
        32.22978
      ],
      [
        24.66157,
        32.21833
      ],
      [
        24.6751,
        32.20688
      ],
      [
        24.68862,
        32.19544
      ],
      [
        24.70215,
        32.18399
      ],
      [
        24.71567,
        32.17254
      ],
      [
        24.72919,
        32.1611
      ],
      [
        24.74271,
        32.14965
      ],
      [
        24.75623,
        32.1382
      ],
      [
        24.76974,
        32.12675
      ],
      [
        24.78326,
        32.11531
      ],
      [
        24.79677,
        32.10386
      ],
      [
        24.81028,
        32.09241
      ],
      [
        24.82379,
        32.08097
      ],
      [
        24.8373,
        32.06952
      ],
      [
        24.85081,
        32.05807
      ],
      [
        24.86431,
        32.04662
      ],
      [
        24.87781,
        32.03518
      ],
      [
        24.89131,
        32.02373
      ],
      [
        24.90481,
        32.01228
      ],
      [
        24.91831,
        32.00083
      ],
      [
        24.93181,
        31.98939
      ],
      [
        24.9453,
        31.97794
      ],
      [
        24.95879,
        31.96649
      ],
      [
        24.97228,
        31.95505
      ],
      [
        24.98577,
        31.9436
      ],
      [
        24.99926,
        31.93215
      ],
      [
        25.01275,
        31.9207
      ],
      [
        25.02623,
        31.90926
      ],
      [
        25.03971,
        31.89781
      ],
      [
        25.05319,
        31.88636
      ],
      [
        25.06667,
        31.87492
      ],
      [
        25.08015,
        31.86347
      ],
      [
        25.09363,
        31.85202
      ],
      [
        25.1071,
        31.84057
      ],
      [
        25.12057,
        31.82913
      ],
      [
        25.13404,
        31.81768
      ],
      [
        25.14751,
        31.80623
      ],
      [
        25.16098,
        31.79478
      ],
      [
        25.17445,
        31.78334
      ],
      [
        25.18791,
        31.77189
      ],
      [
        25.20137,
        31.76044
      ],
      [
        25.21483,
        31.749
      ],
      [
        25.22829,
        31.73755
      ],
      [
        25.24175,
        31.7261
      ],
      [
        25.25521,
        31.71465
      ],
      [
        25.26866,
        31.70321
      ],
      [
        25.28211,
        31.69176
      ],
      [
        25.29556,
        31.68031
      ],
      [
        25.30901,
        31.66887
      ],
      [
        25.32246,
        31.65742
      ],
      [
        25.33591,
        31.64597
      ],
      [
        25.34935,
        31.63452
      ],
      [
        25.36279,
        31.62308
      ],
      [
        25.37623,
        31.61163
      ],
      [
        25.38967,
        31.60018
      ],
      [
        25.40311,
        31.58874
      ],
      [
        25.41655,
        31.57729
      ],
      [
        25.42998,
        31.56584
      ],
      [
        25.44341,
        31.55439
      ],
      [
        25.45684,
        31.54295
      ],
      [
        25.47027,
        31.5315
      ],
      [
        25.4837,
        31.52005
      ],
      [
        25.49713,
        31.5086
      ],
      [
        25.51055,
        31.49716
      ],
      [
        25.52397,
        31.48571
      ],
      [
        25.53739,
        31.47426
      ],
      [
        25.55081,
        31.46282
      ],
      [
        25.56423,
        31.45137
      ],
      [
        25.57765,
        31.43992
      ],
      [
        25.59106,
        31.42847
      ],
      [
        25.60447,
        31.41703
      ],
      [
        25.61789,
        31.40558
      ],
      [
        25.6313,
        31.39413
      ],
      [
        25.6447,
        31.38269
      ],
      [
        25.65811,
        31.37124
      ],
      [
        25.67151,
        31.35979
      ],
      [
        25.68492,
        31.34834
      ],
      [
        25.69832,
        31.3369
      ],
      [
        25.71172,
        31.32545
      ],
      [
        25.72512,
        31.314
      ],
      [
        25.73851,
        31.30256
      ],
      [
        25.75191,
        31.29111
      ],
      [
        25.7653,
        31.27966
      ],
      [
        25.77869,
        31.26821
      ],
      [
        25.79208,
        31.25677
      ],
      [
        25.80547,
        31.24532
      ],
      [
        25.81886,
        31.23387
      ],
      [
        25.83224,
        31.22243
      ],
      [
        25.84563,
        31.21098
      ],
      [
        25.85901,
        31.19953
      ],
      [
        25.87239,
        31.18808
      ],
      [
        25.88577,
        31.17664
      ],
      [
        25.89915,
        31.16519
      ],
      [
        25.91252,
        31.15374
      ],
      [
        25.9259,
        31.14229
      ],
      [
        25.93927,
        31.13085
      ],
      [
        25.95264,
        31.1194
      ],
      [
        25.96601,
        31.10795
      ],
      [
        25.97937,
        31.09651
      ],
      [
        25.99274,
        31.08506
      ],
      [
        26.0061,
        31.07361
      ],
      [
        26.01947,
        31.06216
      ],
      [
        26.03283,
        31.05072
      ],
      [
        26.04619,
        31.03927
      ],
      [
        26.05955,
        31.02782
      ],
      [
        26.0729,
        31.01638
      ],
      [
        26.08626,
        31.00493
      ],
      [
        26.09961,
        30.99348
      ],
      [
        26.11296,
        30.98203
      ],
      [
        26.12631,
        30.97059
      ],
      [
        26.13966,
        30.95914
      ],
      [
        26.153,
        30.94769
      ],
      [
        26.16635,
        30.93625
      ],
      [
        26.17969,
        30.9248
      ],
      [
        26.19303,
        30.91335
      ],
      [
        26.20637,
        30.9019
      ],
      [
        26.21971,
        30.89046
      ],
      [
        26.23305,
        30.87901
      ],
      [
        26.24639,
        30.86756
      ],
      [
        26.25972,
        30.85612
      ],
      [
        26.27305,
        30.84467
      ],
      [
        26.28638,
        30.83322
      ],
      [
        26.29971,
        30.82177
      ],
      [
        26.31304,
        30.81033
      ],
      [
        26.32636,
        30.79888
      ],
      [
        26.33969,
        30.78743
      ],
      [
        26.35301,
        30.77599
      ],
      [
        26.36633,
        30.76454
      ],
      [
        26.37965,
        30.75309
      ],
      [
        26.39297,
        30.74164
      ],
      [
        26.40629,
        30.7302
      ],
      [
        26.4196,
        30.71875
      ],
      [
        26.43291,
        30.7073
      ],
      [
        26.44623,
        30.69585
      ],
      [
        26.45954,
        30.68441
      ],
      [
        26.47284,
        30.67296
      ],
      [
        26.48615,
        30.66151
      ],
      [
        26.49946,
        30.65007
      ],
      [
        26.51276,
        30.63862
      ],
      [
        26.52606,
        30.62717
      ],
      [
        26.53936,
        30.61572
      ],
      [
        26.55266,
        30.60428
      ],
      [
        26.56596,
        30.59283
      ],
      [
        26.57926,
        30.58138
      ],
      [
        26.59255,
        30.56994
      ],
      [
        26.60584,
        30.55849
      ],
      [
        26.61913,
        30.54704
      ],
      [
        26.63242,
        30.53559
      ],
      [
        26.64571,
        30.52415
      ],
      [
        26.659,
        30.5127
      ],
      [
        26.67228,
        30.50125
      ],
      [
        26.68557,
        30.48981
      ],
      [
        26.69885,
        30.47836
      ],
      [
        26.71213,
        30.46691
      ],
      [
        26.72541,
        30.45546
      ],
      [
        26.73868,
        30.44402
      ],
      [
        26.75196,
        30.43257
      ],
      [
        26.76523,
        30.42112
      ],
      [
        26.77851,
        30.40968
      ],
      [
        26.79178,
        30.39823
      ],
      [
        26.80505,
        30.38678
      ],
      [
        26.81831,
        30.37533
      ],
      [
        26.83158,
        30.36389
      ],
      [
        26.84484,
        30.35244
      ],
      [
        26.85811,
        30.34099
      ],
      [
        26.87137,
        30.32955
      ],
      [
        26.88463,
        30.3181
      ],
      [
        26.89789,
        30.30665
      ],
      [
        26.91114,
        30.2952
      ],
      [
        26.9244,
        30.28376
      ],
      [
        26.93765,
        30.27231
      ],
      [
        26.95091,
        30.26086
      ],
      [
        26.96416,
        30.24942
      ],
      [
        26.97741,
        30.23797
      ],
      [
        26.99065,
        30.22652
      ],
      [
        27.0039,
        30.21507
      ],
      [
        27.01714,
        30.20363
      ],
      [
        27.03039,
        30.19218
      ],
      [
        27.04363,
        30.18073
      ],
      [
        27.05687,
        30.16929
      ],
      [
        27.07011,
        30.15784
      ],
      [
        27.08334,
        30.14639
      ],
      [
        27.09658,
        30.13494
      ],
      [
        27.10981,
        30.1235
      ],
      [
        27.12304,
        30.11205
      ],
      [
        27.13627,
        30.1006
      ],
      [
        27.1495,
        30.08916
      ],
      [
        27.16273,
        30.07771
      ],
      [
        27.17596,
        30.06626
      ],
      [
        27.18918,
        30.05481
      ],
      [
        27.20241,
        30.04337
      ],
      [
        27.21563,
        30.03192
      ],
      [
        27.22885,
        30.02047
      ],
      [
        27.24207,
        30.00902
      ],
      [
        27.25528,
        29.99758
      ],
      [
        27.2685,
        29.98613
      ],
      [
        27.28171,
        29.97468
      ],
      [
        27.29492,
        29.96324
      ],
      [
        27.30813,
        29.95179
      ],
      [
        27.32134,
        29.94034
      ],
      [
        27.33455,
        29.92889
      ],
      [
        27.34776,
        29.91745
      ],
      [
        27.36096,
        29.906
      ],
      [
        27.37417,
        29.89455
      ],
      [
        27.38737,
        29.88311
      ],
      [
        27.40057,
        29.87166
      ],
      [
        27.41377,
        29.86021
      ],
      [
        27.42696,
        29.84876
      ],
      [
        27.44016,
        29.83732
      ],
      [
        27.45335,
        29.82587
      ],
      [
        27.46655,
        29.81442
      ],
      [
        27.47974,
        29.80298
      ],
      [
        27.49293,
        29.79153
      ],
      [
        27.50612,
        29.78008
      ],
      [
        27.5193,
        29.76863
      ],
      [
        27.53249,
        29.75719
      ],
      [
        27.54567,
        29.74574
      ],
      [
        27.55885,
        29.73429
      ],
      [
        27.57203,
        29.72285
      ],
      [
        27.58521,
        29.7114
      ],
      [
        27.59839,
        29.69995
      ],
      [
        27.61157,
        29.6885
      ],
      [
        27.62474,
        29.67706
      ],
      [
        27.63791,
        29.66561
      ],
      [
        27.65109,
        29.65416
      ],
      [
        27.66426,
        29.64272
      ],
      [
        27.67742,
        29.63127
      ],
      [
        27.69059,
        29.61982
      ],
      [
        27.70376,
        29.60837
      ],
      [
        27.71692,
        29.59693
      ],
      [
        27.73008,
        29.58548
      ],
      [
        27.74325,
        29.57403
      ],
      [
        27.75641,
        29.56259
      ],
      [
        27.76956,
        29.55114
      ],
      [
        27.78272,
        29.53969
      ],
      [
        27.79588,
        29.52824
      ],
      [
        27.80903,
        29.5168
      ],
      [
        27.82218,
        29.50535
      ],
      [
        27.83533,
        29.4939
      ],
      [
        27.84848,
        29.48246
      ],
      [
        27.86163,
        29.47101
      ],
      [
        27.87478,
        29.45956
      ],
      [
        27.88792,
        29.44811
      ],
      [
        27.90106,
        29.43667
      ],
      [
        27.91421,
        29.42522
      ],
      [
        27.92735,
        29.41377
      ],
      [
        27.94048,
        29.40233
      ],
      [
        27.95362,
        29.39088
      ],
      [
        27.96676,
        29.37943
      ],
      [
        27.97989,
        29.36798
      ],
      [
        27.99302,
        29.35654
      ],
      [
        28.00616,
        29.34509
      ],
      [
        28.01929,
        29.33364
      ],
      [
        28.03241,
        29.3222
      ],
      [
        28.04554,
        29.31075
      ],
      [
        28.05867,
        29.2993
      ],
      [
        28.07179,
        29.28785
      ],
      [
        28.08491,
        29.27641
      ],
      [
        28.09804,
        29.26496
      ],
      [
        28.11116,
        29.25351
      ]
    ]
  }
}
