{
  "type": "Feature",
  "properties": {
    "dropId": "placeholder-drop-2",
    "label": "Second Drop",
    "startDate": "2024-06-01",
    "endDate": "2026-05-23",
    "daysElapsed": 721,
    "estimatedRegion": "northern Adriatic waters",
    "currentName": "Regional surface current",
    "direction": "N",
    "speedKmDay": 1.5,
    "lastLat": 54.5573,
    "lastLng": 20.4633
  },
  "geometry": {
    "type": "LineString",
    "coordinates": [
      [
        20.4633,
        44.8176
      ],
      [
        20.4633,
        44.83109
      ],
      [
        20.4633,
        44.84458
      ],
      [
        20.4633,
        44.85807
      ],
      [
        20.4633,
        44.87156
      ],
      [
        20.4633,
        44.88505
      ],
      [
        20.4633,
        44.89854
      ],
      [
        20.4633,
        44.91203
      ],
      [
        20.4633,
        44.92552
      ],
      [
        20.4633,
        44.93901
      ],
      [
        20.4633,
        44.9525
      ],
      [
        20.4633,
        44.96599
      ],
      [
        20.4633,
        44.97948
      ],
      [
        20.4633,
        44.99297
      ],
      [
        20.4633,
        45.00646
      ],
      [
        20.4633,
        45.01995
      ],
      [
        20.4633,
        45.03344
      ],
      [
        20.4633,
        45.04693
      ],
      [
        20.4633,
        45.06042
      ],
      [
        20.4633,
        45.07391
      ],
      [
        20.4633,
        45.0874
      ],
      [
        20.4633,
        45.10089
      ],
      [
        20.4633,
        45.11438
      ],
      [
        20.4633,
        45.12787
      ],
      [
        20.4633,
        45.14136
      ],
      [
        20.4633,
        45.15485
      ],
      [
        20.4633,
        45.16834
      ],
      [
        20.4633,
        45.18183
      ],
      [
        20.4633,
        45.19532
      ],
      [
        20.4633,
        45.2088
      ],
      [
        20.4633,
        45.22229
      ],
      [
        20.4633,
        45.23578
      ],
      [
        20.4633,
        45.24927
      ],
      [
        20.4633,
        45.26276
      ],
      [
        20.4633,
        45.27625
      ],
      [
        20.4633,
        45.28974
      ],
      [
        20.4633,
        45.30323
      ],
      [
        20.4633,
        45.31672
      ],
      [
        20.4633,
        45.33021
      ],
      [
        20.4633,
        45.3437
      ],
      [
        20.4633,
        45.35719
      ],
      [
        20.4633,
        45.37068
      ],
      [
        20.4633,
        45.38417
      ],
      [
        20.4633,
        45.39766
      ],
      [
        20.4633,
        45.41115
      ],
      [
        20.4633,
        45.42464
      ],
      [
        20.4633,
        45.43813
      ],
      [
        20.4633,
        45.45162
      ],
      [
        20.4633,
        45.46511
      ],
      [
        20.4633,
        45.4786
      ],
      [
        20.4633,
        45.49209
      ],
      [
        20.4633,
        45.50558
      ],
      [
        20.4633,
        45.51907
      ],
      [
        20.4633,
        45.53256
      ],
      [
        20.4633,
        45.54605
      ],
      [
        20.4633,
        45.55954
      ],
      [
        20.4633,
        45.57303
      ],
      [
        20.4633,
        45.58652
      ],
      [
        20.4633,
        45.60001
      ],
      [
        20.4633,
        45.6135
      ],
      [
        20.4633,
        45.62699
      ],
      [
        20.4633,
        45.64048
      ],
      [
        20.4633,
        45.65397
      ],
      [
        20.4633,
        45.66746
      ],
      [
        20.4633,
        45.68095
      ],
      [
        20.4633,
        45.69444
      ],
      [
        20.4633,
        45.70793
      ],
      [
        20.4633,
        45.72142
      ],
      [
        20.4633,
        45.73491
      ],
      [
        20.4633,
        45.7484
      ],
      [
        20.4633,
        45.76189
      ],
      [
        20.4633,
        45.77538
      ],
      [
        20.4633,
        45.78887
      ],
      [
        20.4633,
        45.80236
      ],
      [
        20.4633,
        45.81585
      ],
      [
        20.4633,
        45.82934
      ],
      [
        20.4633,
        45.84283
      ],
      [
        20.4633,
        45.85632
      ],
      [
        20.4633,
        45.86981
      ],
      [
        20.4633,
        45.8833
      ],
      [
        20.4633,
        45.89679
      ],
      [
        20.4633,
        45.91028
      ],
      [
        20.4633,
        45.92377
      ],
      [
        20.4633,
        45.93726
      ],
      [
        20.4633,
        45.95075
      ],
      [
        20.4633,
        45.96424
      ],
      [
        20.4633,
        45.97772
      ],
      [
        20.4633,
        45.99121
      ],
      [
        20.4633,
        46.0047
      ],
      [
        20.4633,
        46.01819
      ],
      [
        20.4633,
        46.03168
      ],
      [
        20.4633,
        46.04517
      ],
      [
        20.4633,
        46.05866
      ],
      [
        20.4633,
        46.07215
      ],
      [
        20.4633,
        46.08564
      ],
      [
        20.4633,
        46.09913
      ],
      [
        20.4633,
        46.11262
      ],
      [
        20.4633,
        46.12611
      ],
      [
        20.4633,
        46.1396
      ],
      [
        20.4633,
        46.15309
      ],
      [
        20.4633,
        46.16658
      ],
      [
        20.4633,
        46.18007
      ],
      [
        20.4633,
        46.19356
      ],
      [
        20.4633,
        46.20705
      ],
      [
        20.4633,
        46.22054
      ],
      [
        20.4633,
        46.23403
      ],
      [
        20.4633,
        46.24752
      ],
      [
        20.4633,
        46.26101
      ],
      [
        20.4633,
        46.2745
      ],
      [
        20.4633,
        46.28799
      ],
      [
        20.4633,
        46.30148
      ],
      [
        20.4633,
        46.31497
      ],
      [
        20.4633,
        46.32846
      ],
      [
        20.4633,
        46.34195
      ],
      [
        20.4633,
        46.35544
      ],
      [
        20.4633,
        46.36893
      ],
      [
        20.4633,
        46.38242
      ],
      [
        20.4633,
        46.39591
      ],
      [
        20.4633,
        46.4094
      ],
      [
        20.4633,
        46.42289
      ],
      [
        20.4633,
        46.43638
      ],
      [
        20.4633,
        46.44987
      ],
      [
        20.4633,
        46.46336
      ],
      [
        20.4633,
        46.47685
      ],
      [
        20.4633,
        46.49034
      ],
      [
        20.4633,
        46.50383
      ],
      [
        20.4633,
        46.51732
      ],
      [
        20.4633,
        46.53081
      ],
      [
        20.4633,
        46.5443
      ],
      [
        20.4633,
        46.55779
      ],
      [
        20.4633,
        46.57128
      ],
      [
        20.4633,
        46.58477
      ],
      [
        20.4633,
        46.59826
      ],
      [
        20.4633,
        46.61175
      ],
      [
        20.4633,
        46.62524
      ],
      [
        20.4633,
        46.63873
      ],
      [
        20.4633,
        46.65222
      ],
      [
        20.4633,
        46.66571
      ],
      [
        20.4633,
        46.6792
      ],
      [
        20.4633,
        46.69269
      ],
      [
        20.4633,
        46.70618
      ],
      [
        20.4633,
        46.71967
      ],
      [
        20.4633,
        46.73316
      ],
      [
        20.4633,
        46.74664
      ],
      [
        20.4633,
        46.76013
      ],
      [
        20.4633,
        46.77362
      ],
      [
        20.4633,
        46.78711
      ],
      [
        20.4633,
        46.8006
      ],
      [
        20.4633,
        46.81409
      ],
      [
        20.4633,
        46.82758
      ],
      [
        20.4633,
        46.84107
      ],
      [
        20.4633,
        46.85456
      ],
      [
        20.4633,
        46.86805
      ],
      [
        20.4633,
        46.88154
      ],
      [
        20.4633,
        46.89503
      ],
      [
        20.4633,
        46.90852
      ],
      [
        20.4633,
        46.92201
      ],
      [
        20.4633,
        46.9355
      ],
      [
        20.4633,
        46.94899
      ],
      [
        20.4633,
        46.96248
      ],
      [
        20.4633,
        46.97597
      ],
      [
        20.4633,
        46.98946
      ],
      [
        20.4633,
        47.00295
      ],
      [
        20.4633,
        47.01644
      ],
      [
        20.4633,
        47.02993
      ],
      [
        20.4633,
        47.04342
      ],
      [
        20.4633,
        47.05691
      ],
      [
        20.4633,
        47.0704
      ],
      [
        20.4633,
        47.08389
      ],
      [
        20.4633,
        47.09738
      ],
      [
        20.4633,
        47.11087
      ],
      [
        20.4633,
        47.12436
      ],
      [
        20.4633,
        47.13785
      ],
      [
        20.4633,
        47.15134
      ],
      [
        20.4633,
        47.16483
      ],
      [
        20.4633,
        47.17832
      ],
      [
        20.4633,
        47.19181
      ],
      [
        20.4633,
        47.2053
      ],
      [
        20.4633,
        47.21879
      ],
      [
        20.4633,
        47.23228
      ],
      [
        20.4633,
        47.24577
      ],
      [
        20.4633,
        47.25926
      ],
      [
        20.4633,
        47.27275
      ],
      [
        20.4633,
        47.28624
      ],
      [
        20.4633,
        47.29973
      ],
      [
        20.4633,
        47.31322
      ],
      [
        20.4633,
        47.32671
      ],
      [
        20.4633,
        47.3402
      ],
      [
        20.4633,
        47.35369
      ],
      [
        20.4633,
        47.36718
      ],
      [
        20.4633,
        47.38067
      ],
      [
        20.4633,
        47.39416
      ],
      [
        20.4633,
        47.40765
      ],
      [
        20.4633,
        47.42114
      ],
      [
        20.4633,
        47.43463
      ],
      [
        20.4633,
        47.44812
      ],
      [
        20.4633,
        47.46161
      ],
      [
        20.4633,
        47.4751
      ],
      [
        20.4633,
        47.48859
      ],
      [
        20.4633,
        47.50207
      ],
      [
        20.4633,
        47.51556
      ],
      [
        20.4633,
        47.52905
      ],
      [
        20.4633,
        47.54254
      ],
      [
        20.4633,
        47.55603
      ],
      [
        20.4633,
        47.56952
      ],
      [
        20.4633,
        47.58301
      ],
      [
        20.4633,
        47.5965
      ],
      [
        20.4633,
        47.60999
      ],
      [
        20.4633,
        47.62348
      ],
      [
        20.4633,
        47.63697
      ],
      [
        20.4633,
        47.65046
      ],
      [
        20.4633,
        47.66395
      ],
      [
        20.4633,
        47.67744
      ],
      [
        20.4633,
        47.69093
      ],
      [
        20.4633,
        47.70442
      ],
      [
        20.4633,
        47.71791
      ],
      [
        20.4633,
        47.7314
      ],
      [
        20.4633,
        47.74489
      ],
      [
        20.4633,
        47.75838
      ],
      [
        20.4633,
        47.77187
      ],
      [
        20.4633,
        47.78536
      ],
      [
        20.4633,
        47.79885
      ],
      [
        20.4633,
        47.81234
      ],
      [
        20.4633,
        47.82583
      ],
      [
        20.4633,
        47.83932
      ],
      [
        20.4633,
        47.85281
      ],
      [
        20.4633,
        47.8663
      ],
      [
        20.4633,
        47.87979
      ],
      [
        20.4633,
        47.89328
      ],
      [
        20.4633,
        47.90677
      ],
      [
        20.4633,
        47.92026
      ],
      [
        20.4633,
        47.93375
      ],
      [
        20.4633,
        47.94724
      ],
      [
        20.4633,
        47.96073
      ],
      [
        20.4633,
        47.97422
      ],
      [
        20.4633,
        47.98771
      ],
      [
        20.4633,
        48.0012
      ],
      [
        20.4633,
        48.01469
      ],
      [
        20.4633,
        48.02818
      ],
      [
        20.4633,
        48.04167
      ],
      [
        20.4633,
        48.05516
      ],
      [
        20.4633,
        48.06865
      ],
      [
        20.4633,
        48.08214
      ],
      [
        20.4633,
        48.09563
      ],
      [
        20.4633,
        48.10912
      ],
      [
        20.4633,
        48.12261
      ],
      [
        20.4633,
        48.1361
      ],
      [
        20.4633,
        48.14959
      ],
      [
        20.4633,
        48.16308
      ],
      [
        20.4633,
        48.17657
      ],
      [
        20.4633,
        48.19006
      ],
      [
        20.4633,
        48.20355
      ],
      [
        20.4633,
        48.21704
      ],
      [
        20.4633,
        48.23053
      ],
      [
        20.4633,
        48.24402
      ],
      [
        20.4633,
        48.25751
      ],
      [
        20.4633,
        48.27099
      ],
      [
        20.4633,
        48.28448
      ],
      [
        20.4633,
        48.29797
      ],
      [
        20.4633,
        48.31146
      ],
      [
        20.4633,
        48.32495
      ],
      [
        20.4633,
        48.33844
      ],
      [
        20.4633,
        48.35193
      ],
      [
        20.4633,
        48.36542
      ],
      [
        20.4633,
        48.37891
      ],
      [
        20.4633,
        48.3924
      ],
      [
        20.4633,
        48.40589
      ],
      [
        20.4633,
        48.41938
      ],
      [
        20.4633,
        48.43287
      ],
      [
        20.4633,
        48.44636
      ],
      [
        20.4633,
        48.45985
      ],
      [
        20.4633,
        48.47334
      ],
      [
        20.4633,
        48.48683
      ],
      [
        20.4633,
        48.50032
      ],
      [
        20.4633,
        48.51381
      ],
      [
        20.4633,
        48.5273
      ],
      [
        20.4633,
        48.54079
      ],
      [
        20.4633,
        48.55428
      ],
      [
        20.4633,
        48.56777
      ],
      [
        20.4633,
        48.58126
      ],
      [
        20.4633,
        48.59475
      ],
      [
        20.4633,
        48.60824
      ],
      [
        20.4633,
        48.62173
      ],
      [
        20.4633,
        48.63522
      ],
      [
        20.4633,
        48.64871
      ],
      [
        20.4633,
        48.6622
      ],
      [
        20.4633,
        48.67569
      ],
      [
        20.4633,
        48.68918
      ],
      [
        20.4633,
        48.70267
      ],
      [
        20.4633,
        48.71616
      ],
      [
        20.4633,
        48.72965
      ],
      [
        20.4633,
        48.74314
      ],
      [
        20.4633,
        48.75663
      ],
      [
        20.4633,
        48.77012
      ],
      [
        20.4633,
        48.78361
      ],
      [
        20.4633,
        48.7971
      ],
      [
        20.4633,
        48.81059
      ],
      [
        20.4633,
        48.82408
      ],
      [
        20.4633,
        48.83757
      ],
      [
        20.4633,
        48.85106
      ],
      [
        20.4633,
        48.86455
      ],
      [
        20.4633,
        48.87804
      ],
      [
        20.4633,
        48.89153
      ],
      [
        20.4633,
        48.90502
      ],
      [
        20.4633,
        48.91851
      ],
      [
        20.4633,
        48.932
      ],
      [
        20.4633,
        48.94549
      ],
      [
        20.4633,
        48.95898
      ],
      [
        20.4633,
        48.97247
      ],
      [
        20.4633,
        48.98596
      ],
      [
        20.4633,
        48.99945
      ],
      [
        20.4633,
        49.01294
      ],
      [
        20.4633,
        49.02643
      ],
      [
        20.4633,
        49.03991
      ],
      [
        20.4633,
        49.0534
      ],
      [
        20.4633,
        49.06689
      ],
      [
        20.4633,
        49.08038
      ],
      [
        20.4633,
        49.09387
      ],
      [
        20.4633,
        49.10736
      ],
      [
        20.4633,
        49.12085
      ],
      [
        20.4633,
        49.13434
      ],
      [
        20.4633,
        49.14783
      ],
      [
        20.4633,
        49.16132
      ],
      [
        20.4633,
        49.17481
      ],
      [
        20.4633,
        49.1883
      ],
      [
        20.4633,
        49.20179
      ],
      [
        20.4633,
        49.21528
      ],
      [
        20.4633,
        49.22877
      ],
      [
        20.4633,
        49.24226
      ],
      [
        20.4633,
        49.25575
      ],
      [
        20.4633,
        49.26924
      ],
      [
        20.4633,
        49.28273
      ],
      [
        20.4633,
        49.29622
      ],
      [
        20.4633,
        49.30971
      ],
      [
        20.4633,
        49.3232
      ],
      [
        20.4633,
        49.33669
      ],
      [
        20.4633,
        49.35018
      ],
      [
        20.4633,
        49.36367
      ],
      [
        20.4633,
        49.37716
      ],
      [
        20.4633,
        49.39065
      ],
      [
        20.4633,
        49.40414
      ],
      [
        20.4633,
        49.41763
      ],
      [
        20.4633,
        49.43112
      ],
      [
        20.4633,
        49.44461
      ],
      [
        20.4633,
        49.4581
      ],
      [
        20.4633,
        49.47159
      ],
      [
        20.4633,
        49.48508
      ],
      [
        20.4633,
        49.49857
      ],
      [
        20.4633,
        49.51206
      ],
      [
        20.4633,
        49.52555
      ],
      [
        20.4633,
        49.53904
      ],
      [
        20.4633,
        49.55253
      ],
      [
        20.4633,
        49.56602
      ],
      [
        20.4633,
        49.57951
      ],
      [
        20.4633,
        49.593
      ],
      [
        20.4633,
        49.60649
      ],
      [
        20.4633,
        49.61998
      ],
      [
        20.4633,
        49.63347
      ],
      [
        20.4633,
        49.64696
      ],
      [
        20.4633,
        49.66045
      ],
      [
        20.4633,
        49.67394
      ],
      [
        20.4633,
        49.68743
      ],
      [
        20.4633,
        49.70092
      ],
      [
        20.4633,
        49.71441
      ],
      [
        20.4633,
        49.7279
      ],
      [
        20.4633,
        49.74139
      ],
      [
        20.4633,
        49.75488
      ],
      [
        20.4633,
        49.76837
      ],
      [
        20.4633,
        49.78186
      ],
      [
        20.4633,
        49.79535
      ],
      [
        20.4633,
        49.80883
      ],
      [
        20.4633,
        49.82232
      ],
      [
        20.4633,
        49.83581
      ],
      [
        20.4633,
        49.8493
      ],
      [
        20.4633,
        49.86279
      ],
      [
        20.4633,
        49.87628
      ],
      [
        20.4633,
        49.88977
      ],
      [
        20.4633,
        49.90326
      ],
      [
        20.4633,
        49.91675
      ],
      [
        20.4633,
        49.93024
      ],
      [
        20.4633,
        49.94373
      ],
      [
        20.4633,
        49.95722
      ],
      [
        20.4633,
        49.97071
      ],
      [
        20.4633,
        49.9842
      ],
      [
        20.4633,
        49.99769
      ],
      [
        20.4633,
        50.01118
      ],
      [
        20.4633,
        50.02467
      ],
      [
        20.4633,
        50.03816
      ],
      [
        20.4633,
        50.05165
      ],
      [
        20.4633,
        50.06514
      ],
      [
        20.4633,
        50.07863
      ],
      [
        20.4633,
        50.09212
      ],
      [
        20.4633,
        50.10561
      ],
      [
        20.4633,
        50.1191
      ],
      [
        20.4633,
        50.13259
      ],
      [
        20.4633,
        50.14608
      ],
      [
        20.4633,
        50.15957
      ],
      [
        20.4633,
        50.17306
      ],
      [
        20.4633,
        50.18655
      ],
      [
        20.4633,
        50.20004
      ],
      [
        20.4633,
        50.21353
      ],
      [
        20.4633,
        50.22702
      ],
      [
        20.4633,
        50.24051
      ],
      [
        20.4633,
        50.254
      ],
      [
        20.4633,
        50.26749
      ],
      [
        20.4633,
        50.28098
      ],
      [
        20.4633,
        50.29447
      ],
      [
        20.4633,
        50.30796
      ],
      [
        20.4633,
        50.32145
      ],
      [
        20.4633,
        50.33494
      ],
      [
        20.4633,
        50.34843
      ],
      [
        20.4633,
        50.36192
      ],
      [
        20.4633,
        50.37541
      ],
      [
        20.4633,
        50.3889
      ],
      [
        20.4633,
        50.40239
      ],
      [
        20.4633,
        50.41588
      ],
      [
        20.4633,
        50.42937
      ],
      [
        20.4633,
        50.44286
      ],
      [
        20.4633,
        50.45635
      ],
      [
        20.4633,
        50.46984
      ],
      [
        20.4633,
        50.48333
      ],
      [
        20.4633,
        50.49682
      ],
      [
        20.4633,
        50.51031
      ],
      [
        20.4633,
        50.5238
      ],
      [
        20.4633,
        50.53729
      ],
      [
        20.4633,
        50.55078
      ],
      [
        20.4633,
        50.56427
      ],
      [
        20.4633,
        50.57775
      ],
      [
        20.4633,
        50.59124
      ],
      [
        20.4633,
        50.60473
      ],
      [
        20.4633,
        50.61822
      ],
      [
        20.4633,
        50.63171
      ],
      [
        20.4633,
        50.6452
      ],
      [
        20.4633,
        50.65869
      ],
      [
        20.4633,
        50.67218
      ],
      [
        20.4633,
        50.68567
      ],
      [
        20.4633,
        50.69916
      ],
      [
        20.4633,
        50.71265
      ],
      [
        20.4633,
        50.72614
      ],
      [
        20.4633,
        50.73963
      ],
      [
        20.4633,
        50.75312
      ],
      [
        20.4633,
        50.76661
      ],
      [
        20.4633,
        50.7801
      ],
      [
        20.4633,
        50.79359
      ],
      [
        20.4633,
        50.80708
      ],
      [
        20.4633,
        50.82057
      ],
      [
        20.4633,
        50.83406
      ],
      [
        20.4633,
        50.84755
      ],
      [
        20.4633,
        50.86104
      ],
      [
        20.4633,
        50.87453
      ],
      [
        20.4633,
        50.88802
      ],
      [
        20.4633,
        50.90151
      ],
      [
        20.4633,
        50.915
      ],
      [
        20.4633,
        50.92849
      ],
      [
        20.4633,
        50.94198
      ],
      [
        20.4633,
        50.95547
      ],
      [
        20.4633,
        50.96896
      ],
      [
        20.4633,
        50.98245
      ],
      [
        20.4633,
        50.99594
      ],
      [
        20.4633,
        51.00943
      ],
      [
        20.4633,
        51.02292
      ],
      [
        20.4633,
        51.03641
      ],
      [
        20.4633,
        51.0499
      ],
      [
        20.4633,
        51.06339
      ],
      [
        20.4633,
        51.07688
      ],
      [
        20.4633,
        51.09037
      ],
      [
        20.4633,
        51.10386
      ],
      [
        20.4633,
        51.11735
      ],
      [
        20.4633,
        51.13084
      ],
      [
        20.4633,
        51.14433
      ],
      [
        20.4633,
        51.15782
      ],
      [
        20.4633,
        51.17131
      ],
      [
        20.4633,
        51.1848
      ],
      [
        20.4633,
        51.19829
      ],
      [
        20.4633,
        51.21178
      ],
      [
        20.4633,
        51.22527
      ],
      [
        20.4633,
        51.23876
      ],
      [
        20.4633,
        51.25225
      ],
      [
        20.4633,
        51.26574
      ],
      [
        20.4633,
        51.27923
      ],
      [
        20.4633,
        51.29272
      ],
      [
        20.4633,
        51.30621
      ],
      [
        20.4633,
        51.3197
      ],
      [
        20.4633,
        51.33319
      ],
      [
        20.4633,
        51.34667
      ],
      [
        20.4633,
        51.36016
      ],
      [
        20.4633,
        51.37365
      ],
      [
        20.4633,
        51.38714
      ],
      [
        20.4633,
        51.40063
      ],
      [
        20.4633,
        51.41412
      ],
      [
        20.4633,
        51.42761
      ],
      [
        20.4633,
        51.4411
      ],
      [
        20.4633,
        51.45459
      ],
      [
        20.4633,
        51.46808
      ],
      [
        20.4633,
        51.48157
      ],
      [
        20.4633,
        51.49506
      ],
      [
        20.4633,
        51.50855
      ],
      [
        20.4633,
        51.52204
      ],
      [
        20.4633,
        51.53553
      ],
      [
        20.4633,
        51.54902
      ],
      [
        20.4633,
        51.56251
      ],
      [
        20.4633,
        51.576
      ],
      [
        20.4633,
        51.58949
      ],
      [
        20.4633,
        51.60298
      ],
      [
        20.4633,
        51.61647
      ],
      [
        20.4633,
        51.62996
      ],
      [
        20.4633,
        51.64345
      ],
      [
        20.4633,
        51.65694
      ],
      [
        20.4633,
        51.67043
      ],
      [
        20.4633,
        51.68392
      ],
      [
        20.4633,
        51.69741
      ],
      [
        20.4633,
        51.7109
      ],
      [
        20.4633,
        51.72439
      ],
      [
        20.4633,
        51.73788
      ],
      [
        20.4633,
        51.75137
      ],
      [
        20.4633,
        51.76486
      ],
      [
        20.4633,
        51.77835
      ],
      [
        20.4633,
        51.79184
      ],
      [
        20.4633,
        51.80533
      ],
      [
        20.4633,
        51.81882
      ],
      [
        20.4633,
        51.83231
      ],
      [
        20.4633,
        51.8458
      ],
      [
        20.4633,
        51.85929
      ],
      [
        20.4633,
        51.87278
      ],
      [
        20.4633,
        51.88627
      ],
      [
        20.4633,
        51.89976
      ],
      [
        20.4633,
        51.91325
      ],
      [
        20.4633,
        51.92674
      ],
      [
        20.4633,
        51.94023
      ],
      [
        20.4633,
        51.95372
      ],
      [
        20.4633,
        51.96721
      ],
      [
        20.4633,
        51.9807
      ],
      [
        20.4633,
        51.99419
      ],
      [
        20.4633,
        52.00768
      ],
      [
        20.4633,
        52.02117
      ],
      [
        20.4633,
        52.03466
      ],
      [
        20.4633,
        52.04815
      ],
      [
        20.4633,
        52.06164
      ],
      [
        20.4633,
        52.07513
      ],
      [
        20.4633,
        52.08862
      ],
      [
        20.4633,
        52.10211
      ],
      [
        20.4633,
        52.11559
      ],
      [
        20.4633,
        52.12908
      ],
      [
        20.4633,
        52.14257
      ],
      [
        20.4633,
        52.15606
      ],
      [
        20.4633,
        52.16955
      ],
      [
        20.4633,
        52.18304
      ],
      [
        20.4633,
        52.19653
      ],
      [
        20.4633,
        52.21002
      ],
      [
        20.4633,
        52.22351
      ],
      [
        20.4633,
        52.237
      ],
      [
        20.4633,
        52.25049
      ],
      [
        20.4633,
        52.26398
      ],
      [
        20.4633,
        52.27747
      ],
      [
        20.4633,
        52.29096
      ],
      [
        20.4633,
        52.30445
      ],
      [
        20.4633,
        52.31794
      ],
      [
        20.4633,
        52.33143
      ],
      [
        20.4633,
        52.34492
      ],
      [
        20.4633,
        52.35841
      ],
      [
        20.4633,
        52.3719
      ],
      [
        20.4633,
        52.38539
      ],
      [
        20.4633,
        52.39888
      ],
      [
        20.4633,
        52.41237
      ],
      [
        20.4633,
        52.42586
      ],
      [
        20.4633,
        52.43935
      ],
      [
        20.4633,
        52.45284
      ],
      [
        20.4633,
        52.46633
      ],
      [
        20.4633,
        52.47982
      ],
      [
        20.4633,
        52.49331
      ],
      [
        20.4633,
        52.5068
      ],
      [
        20.4633,
        52.52029
      ],
      [
        20.4633,
        52.53378
      ],
      [
        20.4633,
        52.54727
      ],
      [
        20.4633,
        52.56076
      ],
      [
        20.4633,
        52.57425
      ],
      [
        20.4633,
        52.58774
      ],
      [
        20.4633,
        52.60123
      ],
      [
        20.4633,
        52.61472
      ],
      [
        20.4633,
        52.62821
      ],
      [
        20.4633,
        52.6417
      ],
      [
        20.4633,
        52.65519
      ],
      [
        20.4633,
        52.66868
      ],
      [
        20.4633,
        52.68217
      ],
      [
        20.4633,
        52.69566
      ],
      [
        20.4633,
        52.70915
      ],
      [
        20.4633,
        52.72264
      ],
      [
        20.4633,
        52.73613
      ],
      [
        20.4633,
        52.74962
      ],
      [
        20.4633,
        52.76311
      ],
      [
        20.4633,
        52.7766
      ],
      [
        20.4633,
        52.79009
      ],
      [
        20.4633,
        52.80358
      ],
      [
        20.4633,
        52.81707
      ],
      [
        20.4633,
        52.83056
      ],
      [
        20.4633,
        52.84405
      ],
      [
        20.4633,
        52.85754
      ],
      [
        20.4633,
        52.87102
      ],
      [
        20.4633,
        52.88451
      ],
      [
        20.4633,
        52.898
      ],
      [
        20.4633,
        52.91149
      ],
      [
        20.4633,
        52.92498
      ],
      [
        20.4633,
        52.93847
      ],
      [
        20.4633,
        52.95196
      ],
      [
        20.4633,
        52.96545
      ],
      [
        20.4633,
        52.97894
      ],
      [
        20.4633,
        52.99243
      ],
      [
        20.4633,
        53.00592
      ],
      [
        20.4633,
        53.01941
      ],
      [
        20.4633,
        53.0329
      ],
      [
        20.4633,
        53.04639
      ],
      [
        20.4633,
        53.05988
      ],
      [
        20.4633,
        53.07337
      ],
      [
        20.4633,
        53.08686
      ],
      [
        20.4633,
        53.10035
      ],
      [
        20.4633,
        53.11384
      ],
      [
        20.4633,
        53.12733
      ],
      [
        20.4633,
        53.14082
      ],
      [
        20.4633,
        53.15431
      ],
      [
        20.4633,
        53.1678
      ],
      [
        20.4633,
        53.18129
      ],
      [
        20.4633,
        53.19478
      ],
      [
        20.4633,
        53.20827
      ],
      [
        20.4633,
        53.22176
      ],
      [
        20.4633,
        53.23525
      ],
      [
        20.4633,
        53.24874
      ],
      [
        20.4633,
        53.26223
      ],
      [
        20.4633,
        53.27572
      ],
      [
        20.4633,
        53.28921
      ],
      [
        20.4633,
        53.3027
      ],
      [
        20.4633,
        53.31619
      ],
      [
        20.4633,
        53.32968
      ],
      [
        20.4633,
        53.34317
      ],
      [
        20.4633,
        53.35666
      ],
      [
        20.4633,
        53.37015
      ],
      [
        20.4633,
        53.38364
      ],
      [
        20.4633,
        53.39713
      ],
      [
        20.4633,
        53.41062
      ],
      [
        20.4633,
        53.42411
      ],
      [
        20.4633,
        53.4376
      ],
      [
        20.4633,
        53.45109
      ],
      [
        20.4633,
        53.46458
      ],
      [
        20.4633,
        53.47807
      ],
      [
        20.4633,
        53.49156
      ],
      [
        20.4633,
        53.50505
      ],
      [
        20.4633,
        53.51854
      ],
      [
        20.4633,
        53.53203
      ],
      [
        20.4633,
        53.54552
      ],
      [
        20.4633,
        53.55901
      ],
      [
        20.4633,
        53.5725
      ],
      [
        20.4633,
        53.58599
      ],
      [
        20.4633,
        53.59948
      ],
      [
        20.4633,
        53.61297
      ],
      [
        20.4633,
        53.62646
      ],
      [
        20.4633,
        53.63994
      ],
      [
        20.4633,
        53.65343
      ],
      [
        20.4633,
        53.66692
      ],
      [
        20.4633,
        53.68041
      ],
      [
        20.4633,
        53.6939
      ],
      [
        20.4633,
        53.70739
      ],
      [
        20.4633,
        53.72088
      ],
      [
        20.4633,
        53.73437
      ],
      [
        20.4633,
        53.74786
      ],
      [
        20.4633,
        53.76135
      ],
      [
        20.4633,
        53.77484
      ],
      [
        20.4633,
        53.78833
      ],
      [
        20.4633,
        53.80182
      ],
      [
        20.4633,
        53.81531
      ],
      [
        20.4633,
        53.8288
      ],
      [
        20.4633,
        53.84229
      ],
      [
        20.4633,
        53.85578
      ],
      [
        20.4633,
        53.86927
      ],
      [
        20.4633,
        53.88276
      ],
      [
        20.4633,
        53.89625
      ],
      [
        20.4633,
        53.90974
      ],
      [
        20.4633,
        53.92323
      ],
      [
        20.4633,
        53.93672
      ],
      [
        20.4633,
        53.95021
      ],
      [
        20.4633,
        53.9637
      ],
      [
        20.4633,
        53.97719
      ],
      [
        20.4633,
        53.99068
      ],
      [
        20.4633,
        54.00417
      ],
      [
        20.4633,
        54.01766
      ],
      [
        20.4633,
        54.03115
      ],
      [
        20.4633,
        54.04464
      ],
      [
        20.4633,
        54.05813
      ],
      [
        20.4633,
        54.07162
      ],
      [
        20.4633,
        54.08511
      ],
      [
        20.4633,
        54.0986
      ],
      [
        20.4633,
        54.11209
      ],
      [
        20.4633,
        54.12558
      ],
      [
        20.4633,
        54.13907
      ],
      [
        20.4633,
        54.15256
      ],
      [
        20.4633,
        54.16605
      ],
      [
        20.4633,
        54.17954
      ],
      [
        20.4633,
        54.19303
      ],
      [
        20.4633,
        54.20652
      ],
      [
        20.4633,
        54.22001
      ],
      [
        20.4633,
        54.2335
      ],
      [
        20.4633,
        54.24699
      ],
      [
        20.4633,
        54.26048
      ],
      [
        20.4633,
        54.27397
      ],
      [
        20.4633,
        54.28746
      ],
      [
        20.4633,
        54.30095
      ],
      [
        20.4633,
        54.31444
      ],
      [
        20.4633,
        54.32793
      ],
      [
        20.4633,
        54.34142
      ],
      [
        20.4633,
        54.35491
      ],
      [
        20.4633,
        54.3684
      ],
      [
        20.4633,
        54.38189
      ],
      [
        20.4633,
        54.39538
      ],
      [
        20.4633,
        54.40886
      ],
      [
        20.4633,
        54.42235
      ],
      [
        20.4633,
        54.43584
      ],
      [
        20.4633,
        54.44933
      ],
      [
        20.4633,
        54.46282
      ],
      [
        20.4633,
        54.47631
      ],
      [
        20.4633,
        54.4898
      ],
      [
        20.4633,
        54.50329
      ],
      [
        20.4633,
        54.51678
      ],
      [
        20.4633,
        54.53027
      ],
      [
        20.4633,
        54.54376
      ],
      [
        20.4633,
        54.55725
      ]
    ]
  }
}
