{
  "type": "Feature",
  "properties": {
    "dropId": "santa-cruz-ca",
    "label": "Santa Cruz",
    "startDate": "2019-12-15",
    "endDate": "2026-05-23",
    "daysElapsed": 2351,
    "estimatedRegion": "the North Pacific",
    "currentName": "California Current",
    "direction": "S",
    "speedKmDay": 0.9,
    "lastLat": 17.9128,
    "lastLng": -122.0267,
    "onOcean": true
  },
  "geometry": {
    "type": "LineString",
    "coordinates": [
      [
        -122.0267,
        36.94968
      ],
      [
        -122.0267,
        36.89302
      ],
      [
        -122.0267,
        36.83636
      ],
      [
        -122.0267,
        36.7797
      ],
      [
        -122.0267,
        36.72305
      ],
      [
        -122.0267,
        36.66639
      ],
      [
        -122.0267,
        36.60973
      ],
      [
        -122.0267,
        36.55308
      ],
      [
        -122.0267,
        36.49642
      ],
      [
        -122.0267,
        36.43976
      ],
      [
        -122.0267,
        36.3831
      ],
      [
        -122.0267,
        36.32645
      ],
      [
        -122.0267,
        36.26979
      ],
      [
        -122.0267,
        36.21313
      ],
      [
        -122.0267,
        36.15647
      ],
      [
        -122.0267,
        36.09982
      ],
      [
        -122.0267,
        36.04316
      ],
      [
        -122.0267,
        35.9865
      ],
      [
        -122.0267,
        35.92985
      ],
      [
        -122.0267,
        35.87319
      ],
      [
        -122.0267,
        35.81653
      ],
      [
        -122.0267,
        35.75987
      ],
      [
        -122.0267,
        35.70322
      ],
      [
        -122.0267,
        35.64656
      ],
      [
        -122.0267,
        35.5899
      ],
      [
        -122.0267,
        35.53324
      ],
      [
        -122.0267,
        35.47659
      ],
      [
        -122.0267,
        35.41993
      ],
      [
        -122.0267,
        35.36327
      ],
      [
        -122.0267,
        35.30662
      ],
      [
        -122.0267,
        35.24996
      ],
      [
        -122.0267,
        35.1933
      ],
      [
        -122.0267,
        35.13664
      ],
      [
        -122.0267,
        35.07999
      ],
      [
        -122.0267,
        35.02333
      ],
      [
        -122.0267,
        34.96667
      ],
      [
        -122.0267,
        34.91002
      ],
      [
        -122.0267,
        34.85336
      ],
      [
        -122.0267,
        34.7967
      ],
      [
        -122.0267,
        34.74004
      ],
      [
        -122.0267,
        34.68339
      ],
      [
        -122.0267,
        34.62673
      ],
      [
        -122.0267,
        34.57007
      ],
      [
        -122.0267,
        34.51341
      ],
      [
        -122.0267,
        34.45676
      ],
      [
        -122.0267,
        34.4001
      ],
      [
        -122.0267,
        34.34344
      ],
      [
        -122.0267,
        34.28679
      ],
      [
        -122.0267,
        34.23013
      ],
      [
        -122.0267,
        34.17347
      ],
      [
        -122.0267,
        34.11681
      ],
      [
        -122.0267,
        34.06016
      ],
      [
        -122.0267,
        34.0035
      ],
      [
        -122.0267,
        33.94684
      ],
      [
        -122.0267,
        33.89018
      ],
      [
        -122.0267,
        33.83353
      ],
      [
        -122.0267,
        33.77687
      ],
      [
        -122.0267,
        33.72021
      ],
      [
        -122.0267,
        33.66356
      ],
      [
        -122.0267,
        33.6069
      ],
      [
        -122.0267,
        33.55024
      ],
      [
        -122.0267,
        33.49358
      ],
      [
        -122.0267,
        33.43693
      ],
      [
        -122.0267,
        33.38027
      ],
      [
        -122.0267,
        33.32361
      ],
      [
        -122.0267,
        33.26695
      ],
      [
        -122.0267,
        33.2103
      ],
      [
        -122.0267,
        33.15364
      ],
      [
        -122.0267,
        33.09698
      ],
      [
        -122.0267,
        33.04033
      ],
      [
        -122.0267,
        32.98367
      ],
      [
        -122.0267,
        32.92701
      ],
      [
        -122.0267,
        32.87035
      ],
      [
        -122.0267,
        32.8137
      ],
      [
        -122.0267,
        32.75704
      ],
      [
        -122.0267,
        32.70038
      ],
      [
        -122.0267,
        32.64372
      ],
      [
        -122.0267,
        32.58707
      ],
      [
        -122.0267,
        32.53041
      ],
      [
        -122.0267,
        32.47375
      ],
      [
        -122.0267,
        32.4171
      ],
      [
        -122.0267,
        32.36044
      ],
      [
        -122.0267,
        32.30378
      ],
      [
        -122.0267,
        32.24712
      ],
      [
        -122.0267,
        32.19047
      ],
      [
        -122.0267,
        32.13381
      ],
      [
        -122.0267,
        32.07715
      ],
      [
        -122.0267,
        32.02049
      ],
      [
        -122.0267,
        31.96384
      ],
      [
        -122.0267,
        31.90718
      ],
      [
        -122.0267,
        31.85052
      ],
      [
        -122.0267,
        31.79387
      ],
      [
        -122.0267,
        31.73721
      ],
      [
        -122.0267,
        31.68055
      ],
      [
        -122.0267,
        31.62389
      ],
      [
        -122.0267,
        31.56724
      ],
      [
        -122.0267,
        31.51058
      ],
      [
        -122.0267,
        31.45392
      ],
      [
        -122.0267,
        31.39726
      ],
      [
        -122.0267,
        31.34061
      ],
      [
        -122.0267,
        31.28395
      ],
      [
        -122.0267,
        31.22729
      ],
      [
        -122.0267,
        31.17064
      ],
      [
        -122.0267,
        31.11398
      ],
      [
        -122.0267,
        31.05732
      ],
      [
        -122.0267,
        31.00066
      ],
      [
        -122.0267,
        30.94401
      ],
      [
        -122.0267,
        30.88735
      ],
      [
        -122.0267,
        30.83069
      ],
      [
        -122.0267,
        30.77404
      ],
      [
        -122.0267,
        30.71738
      ],
      [
        -122.0267,
        30.66072
      ],
      [
        -122.0267,
        30.60406
      ],
      [
        -122.0267,
        30.54741
      ],
      [
        -122.0267,
        30.49075
      ],
      [
        -122.0267,
        30.43409
      ],
      [
        -122.0267,
        30.37743
      ],
      [
        -122.0267,
        30.32078
      ],
      [
        -122.0267,
        30.26412
      ],
      [
        -122.0267,
        30.20746
      ],
      [
        -122.0267,
        30.15081
      ],
      [
        -122.0267,
        30.09415
      ],
      [
        -122.0267,
        30.03749
      ],
      [
        -122.0267,
        29.98083
      ],
      [
        -122.0267,
        29.92418
      ],
      [
        -122.0267,
        29.86752
      ],
      [
        -122.0267,
        29.81086
      ],
      [
        -122.0267,
        29.7542
      ],
      [
        -122.0267,
        29.69755
      ],
      [
        -122.0267,
        29.64089
      ],
      [
        -122.0267,
        29.58423
      ],
      [
        -122.0267,
        29.52758
      ],
      [
        -122.0267,
        29.47092
      ],
      [
        -122.0267,
        29.41426
      ],
      [
        -122.0267,
        29.3576
      ],
      [
        -122.0267,
        29.30095
      ],
      [
        -122.0267,
        29.24429
      ],
      [
        -122.0267,
        29.18763
      ],
      [
        -122.0267,
        29.13097
      ],
      [
        -122.0267,
        29.07432
      ],
      [
        -122.0267,
        29.01766
      ],
      [
        -122.0267,
        28.961
      ],
      [
        -122.0267,
        28.90435
      ],
      [
        -122.0267,
        28.84769
      ],
      [
        -122.0267,
        28.79103
      ],
      [
        -122.0267,
        28.73437
      ],
      [
        -122.0267,
        28.67772
      ],
      [
        -122.0267,
        28.62106
      ],
      [
        -122.0267,
        28.5644
      ],
      [
        -122.0267,
        28.50774
      ],
      [
        -122.0267,
        28.45109
      ],
      [
        -122.0267,
        28.39443
      ],
      [
        -122.0267,
        28.33777
      ],
      [
        -122.0267,
        28.28112
      ],
      [
        -122.0267,
        28.22446
      ],
      [
        -122.0267,
        28.1678
      ],
      [
        -122.0267,
        28.11114
      ],
      [
        -122.0267,
        28.05449
      ],
      [
        -122.0267,
        27.99783
      ],
      [
        -122.0267,
        27.94117
      ],
      [
        -122.0267,
        27.88451
      ],
      [
        -122.0267,
        27.82786
      ],
      [
        -122.0267,
        27.7712
      ],
      [
        -122.0267,
        27.71454
      ],
      [
        -122.0267,
        27.65789
      ],
      [
        -122.0267,
        27.60123
      ],
      [
        -122.0267,
        27.54457
      ],
      [
        -122.0267,
        27.48791
      ],
      [
        -122.0267,
        27.43126
      ],
      [
        -122.0267,
        27.3746
      ],
      [
        -122.0267,
        27.31794
      ],
      [
        -122.0267,
        27.26128
      ],
      [
        -122.0267,
        27.20463
      ],
      [
        -122.0267,
        27.14797
      ],
      [
        -122.0267,
        27.09131
      ],
      [
        -122.0267,
        27.03466
      ],
      [
        -122.0267,
        26.978
      ],
      [
        -122.0267,
        26.92134
      ],
      [
        -122.0267,
        26.86468
      ],
      [
        -122.0267,
        26.80803
      ],
      [
        -122.0267,
        26.75137
      ],
      [
        -122.0267,
        26.69471
      ],
      [
        -122.0267,
        26.63805
      ],
      [
        -122.0267,
        26.5814
      ],
      [
        -122.0267,
        26.52474
      ],
      [
        -122.0267,
        26.46808
      ],
      [
        -122.0267,
        26.41143
      ],
      [
        -122.0267,
        26.35477
      ],
      [
        -122.0267,
        26.29811
      ],
      [
        -122.0267,
        26.24145
      ],
      [
        -122.0267,
        26.1848
      ],
      [
        -122.0267,
        26.12814
      ],
      [
        -122.0267,
        26.07148
      ],
      [
        -122.0267,
        26.01483
      ],
      [
        -122.0267,
        25.95817
      ],
      [
        -122.0267,
        25.90151
      ],
      [
        -122.0267,
        25.84485
      ],
      [
        -122.0267,
        25.7882
      ],
      [
        -122.0267,
        25.73154
      ],
      [
        -122.0267,
        25.67488
      ],
      [
        -122.0267,
        25.61822
      ],
      [
        -122.0267,
        25.56157
      ],
      [
        -122.0267,
        25.50491
      ],
      [
        -122.0267,
        25.44825
      ],
      [
        -122.0267,
        25.3916
      ],
      [
        -122.0267,
        25.33494
      ],
      [
        -122.0267,
        25.27828
      ],
      [
        -122.0267,
        25.22162
      ],
      [
        -122.0267,
        25.16497
      ],
      [
        -122.0267,
        25.10831
      ],
      [
        -122.0267,
        25.05165
      ],
      [
        -122.0267,
        24.99499
      ],
      [
        -122.0267,
        24.93834
      ],
      [
        -122.0267,
        24.88168
      ],
      [
        -122.0267,
        24.82502
      ],
      [
        -122.0267,
        24.76837
      ],
      [
        -122.0267,
        24.71171
      ],
      [
        -122.0267,
        24.65505
      ],
      [
        -122.0267,
        24.59839
      ],
      [
        -122.0267,
        24.54174
      ],
      [
        -122.0267,
        24.48508
      ],
      [
        -122.0267,
        24.42842
      ],
      [
        -122.0267,
        24.37176
      ],
      [
        -122.0267,
        24.31511
      ],
      [
        -122.0267,
        24.25845
      ],
      [
        -122.0267,
        24.20179
      ],
      [
        -122.0267,
        24.14514
      ],
      [
        -122.0267,
        24.08848
      ],
      [
        -122.0267,
        24.03182
      ],
      [
        -122.0267,
        23.97516
      ],
      [
        -122.0267,
        23.91851
      ],
      [
        -122.0267,
        23.86185
      ],
      [
        -122.0267,
        23.80519
      ],
      [
        -122.0267,
        23.74853
      ],
      [
        -122.0267,
        23.69188
      ],
      [
        -122.0267,
        23.63522
      ],
      [
        -122.0267,
        23.57856
      ],
      [
        -122.0267,
        23.52191
      ],
      [
        -122.0267,
        23.46525
      ],
      [
        -122.0267,
        23.40859
      ],
      [
        -122.0267,
        23.35193
      ],
      [
        -122.0267,
        23.29528
      ],
      [
        -122.0267,
        23.23862
      ],
      [
        -122.0267,
        23.18196
      ],
      [
        -122.0267,
        23.1253
      ],
      [
        -122.0267,
        23.06865
      ],
      [
        -122.0267,
        23.01199
      ],
      [
        -122.0267,
        22.95533
      ],
      [
        -122.0267,
        22.89868
      ],
      [
        -122.0267,
        22.84202
      ],
      [
        -122.0267,
        22.78536
      ],
      [
        -122.0267,
        22.7287
      ],
      [
        -122.0267,
        22.67205
      ],
      [
        -122.0267,
        22.61539
      ],
      [
        -122.0267,
        22.55873
      ],
      [
        -122.0267,
        22.50207
      ],
      [
        -122.0267,
        22.44542
      ],
      [
        -122.0267,
        22.38876
      ],
      [
        -122.0267,
        22.3321
      ],
      [
        -122.0267,
        22.27545
      ],
      [
        -122.0267,
        22.21879
      ],
      [
        -122.0267,
        22.16213
      ],
      [
        -122.0267,
        22.10547
      ],
      [
        -122.0267,
        22.04882
      ],
      [
        -122.0267,
        21.99216
      ],
      [
        -122.0267,
        21.9355
      ],
      [
        -122.0267,
        21.87885
      ],
      [
        -122.0267,
        21.82219
      ],
      [
        -122.0267,
        21.76553
      ],
      [
        -122.0267,
        21.70887
      ],
      [
        -122.0267,
        21.65222
      ],
      [
        -122.0267,
        21.59556
      ],
      [
        -122.0267,
        21.5389
      ],
      [
        -122.0267,
        21.48224
      ],
      [
        -122.0267,
        21.42559
      ],
      [
        -122.0267,
        21.36893
      ],
      [
        -122.0267,
        21.31227
      ],
      [
        -122.0267,
        21.25562
      ],
      [
        -122.0267,
        21.19896
      ],
      [
        -122.0267,
        21.1423
      ],
      [
        -122.0267,
        21.08564
      ],
      [
        -122.0267,
        21.02899
      ],
      [
        -122.0267,
        20.97233
      ],
      [
        -122.0267,
        20.91567
      ],
      [
        -122.0267,
        20.85901
      ],
      [
        -122.0267,
        20.80236
      ],
      [
        -122.0267,
        20.7457
      ],
      [
        -122.0267,
        20.68904
      ],
      [
        -122.0267,
        20.63239
      ],
      [
        -122.0267,
        20.57573
      ],
      [
        -122.0267,
        20.51907
      ],
      [
        -122.0267,
        20.46241
      ],
      [
        -122.0267,
        20.40576
      ],
      [
        -122.0267,
        20.3491
      ],
      [
        -122.0267,
        20.29244
      ],
      [
        -122.0267,
        20.23578
      ],
      [
        -122.0267,
        20.17913
      ],
      [
        -122.0267,
        20.12247
      ],
      [
        -122.0267,
        20.06581
      ],
      [
        -122.0267,
        20.00916
      ],
      [
        -122.0267,
        19.9525
      ],
      [
        -122.0267,
        19.89584
      ],
      [
        -122.0267,
        19.83918
      ],
      [
        -122.0267,
        19.78253
      ],
      [
        -122.0267,
        19.72587
      ],
      [
        -122.0267,
        19.66921
      ],
      [
        -122.0267,
        19.61255
      ],
      [
        -122.0267,
        19.5559
      ],
      [
        -122.0267,
        19.49924
      ],
      [
        -122.0267,
        19.44258
      ],
      [
        -122.0267,
        19.38593
      ],
      [
        -122.0267,
        19.32927
      ],
      [
        -122.0267,
        19.27261
      ],
      [
        -122.0267,
        19.21595
      ],
      [
        -122.0267,
        19.1593
      ],
      [
        -122.0267,
        19.10264
      ],
      [
        -122.0267,
        19.04598
      ],
      [
        -122.0267,
        18.98932
      ],
      [
        -122.0267,
        18.93267
      ],
      [
        -122.0267,
        18.87601
      ],
      [
        -122.0267,
        18.81935
      ],
      [
        -122.0267,
        18.7627
      ],
      [
        -122.0267,
        18.70604
      ],
      [
        -122.0267,
        18.64938
      ],
      [
        -122.0267,
        18.59272
      ],
      [
        -122.0267,
        18.53607
      ],
      [
        -122.0267,
        18.47941
      ],
      [
        -122.0267,
        18.42275
      ],
      [
        -122.0267,
        18.36609
      ],
      [
        -122.0267,
        18.30944
      ],
      [
        -122.0267,
        18.25278
      ],
      [
        -122.0267,
        18.19612
      ],
      [
        -122.0267,
        18.13947
      ],
      [
        -122.0267,
        18.08281
      ],
      [
        -122.0267,
        18.02615
      ],
      [
        -122.0267,
        17.96949
      ],
      [
        -122.0267,
        17.91284
      ]
    ]
  }
}
