{
  "type": "Feature",
  "properties": {
    "dropId": "st-croix",
    "label": "St. Croix",
    "startDate": "2024-02-15",
    "endDate": "2026-05-23",
    "daysElapsed": 828,
    "estimatedRegion": "the central Caribbean",
    "currentName": "Caribbean surface current",
    "direction": "NW",
    "speedKmDay": 1.0,
    "lastLat": 23.4576,
    "lastLng": -69.826
  },
  "geometry": {
    "type": "LineString",
    "coordinates": [
      [
        -64.7035,
        17.7465
      ],
      [
        -64.74599,
        17.79472
      ],
      [
        -64.7885,
        17.84295
      ],
      [
        -64.83101,
        17.89117
      ],
      [
        -64.87354,
        17.9394
      ],
      [
        -64.91608,
        17.98762
      ],
      [
        -64.95863,
        18.03584
      ],
      [
        -65.0012,
        18.08407
      ],
      [
        -65.04377,
        18.13229
      ],
      [
        -65.08636,
        18.18051
      ],
      [
        -65.12896,
        18.22874
      ],
      [
        -65.17157,
        18.27696
      ],
      [
        -65.21419,
        18.32519
      ],
      [
        -65.25682,
        18.37341
      ],
      [
        -65.29947,
        18.42163
      ],
      [
        -65.34212,
        18.46986
      ],
      [
        -65.38479,
        18.51808
      ],
      [
        -65.42747,
        18.5663
      ],
      [
        -65.47017,
        18.61453
      ],
      [
        -65.51287,
        18.66275
      ],
      [
        -65.55559,
        18.71098
      ],
      [
        -65.59832,
        18.7592
      ],
      [
        -65.64106,
        18.80742
      ],
      [
        -65.68382,
        18.85565
      ],
      [
        -65.72659,
        18.90387
      ],
      [
        -65.76936,
        18.95209
      ],
      [
        -65.81216,
        19.00032
      ],
      [
        -65.85496,
        19.04854
      ],
      [
        -65.89778,
        19.09676
      ],
      [
        -65.9406,
        19.14499
      ],
      [
        -65.98345,
        19.19321
      ],
      [
        -66.0263,
        19.24144
      ],
      [
        -66.06917,
        19.28966
      ],
      [
        -66.11205,
        19.33788
      ],
      [
        -66.15494,
        19.38611
      ],
      [
        -66.19784,
        19.43433
      ],
      [
        -66.24076,
        19.48255
      ],
      [
        -66.28369,
        19.53078
      ],
      [
        -66.32663,
        19.579
      ],
      [
        -66.36959,
        19.62723
      ],
      [
        -66.41256,
        19.67545
      ],
      [
        -66.45554,
        19.72367
      ],
      [
        -66.49853,
        19.7719
      ],
      [
        -66.54154,
        19.82012
      ],
      [
        -66.58456,
        19.86834
      ],
      [
        -66.62759,
        19.91657
      ],
      [
        -66.67064,
        19.96479
      ],
      [
        -66.7137,
        20.01302
      ],
      [
        -66.75677,
        20.06124
      ],
      [
        -66.79986,
        20.10946
      ],
      [
        -66.84296,
        20.15769
      ],
      [
        -66.88607,
        20.20591
      ],
      [
        -66.9292,
        20.25413
      ],
      [
        -66.97234,
        20.30236
      ],
      [
        -67.01549,
        20.35058
      ],
      [
        -67.05866,
        20.3988
      ],
      [
        -67.10184,
        20.44703
      ],
      [
        -67.14503,
        20.49525
      ],
      [
        -67.18824,
        20.54348
      ],
      [
        -67.23146,
        20.5917
      ],
      [
        -67.2747,
        20.63992
      ],
      [
        -67.31794,
        20.68815
      ],
      [
        -67.36121,
        20.73637
      ],
      [
        -67.40448,
        20.78459
      ],
      [
        -67.44777,
        20.83282
      ],
      [
        -67.49108,
        20.88104
      ],
      [
        -67.53439,
        20.92926
      ],
      [
        -67.57772,
        20.97749
      ],
      [
        -67.62107,
        21.02571
      ],
      [
        -67.66443,
        21.07394
      ],
      [
        -67.7078,
        21.12216
      ],
      [
        -67.75119,
        21.17038
      ],
      [
        -67.79459,
        21.21861
      ],
      [
        -67.83801,
        21.26683
      ],
      [
        -67.88144,
        21.31505
      ],
      [
        -67.92488,
        21.36328
      ],
      [
        -67.96834,
        21.4115
      ],
      [
        -68.01182,
        21.45972
      ],
      [
        -68.0553,
        21.50795
      ],
      [
        -68.0988,
        21.55617
      ],
      [
        -68.14232,
        21.6044
      ],
      [
        -68.18585,
        21.65262
      ],
      [
        -68.2294,
        21.70084
      ],
      [
        -68.27296,
        21.74907
      ],
      [
        -68.31653,
        21.79729
      ],
      [
        -68.36012,
        21.84551
      ],
      [
        -68.40373,
        21.89374
      ],
      [
        -68.44734,
        21.94196
      ],
      [
        -68.49098,
        21.99018
      ],
      [
        -68.53463,
        22.03841
      ],
      [
        -68.57829,
        22.08663
      ],
      [
        -68.62197,
        22.13486
      ],
      [
        -68.66566,
        22.18308
      ],
      [
        -68.70937,
        22.2313
      ],
      [
        -68.75309,
        22.27953
      ],
      [
        -68.79683,
        22.32775
      ],
      [
        -68.84059,
        22.37597
      ],
      [
        -68.88435,
        22.4242
      ],
      [
        -68.92814,
        22.47242
      ],
      [
        -68.97194,
        22.52064
      ],
      [
        -69.01575,
        22.56887
      ],
      [
        -69.05958,
        22.61709
      ],
      [
        -69.10343,
        22.66531
      ],
      [
        -69.14729,
        22.71354
      ],
      [
        -69.19116,
        22.76176
      ],
      [
        -69.23505,
        22.80999
      ],
      [
        -69.27896,
        22.85821
      ],
      [
        -69.32288,
        22.90643
      ],
      [
        -69.36682,
        22.95466
      ],
      [
        -69.41078,
        23.00288
      ],
      [
        -69.45475,
        23.0511
      ],
      [
        -69.49873,
        23.09933
      ],
      [
        -69.54273,
        23.14755
      ],
      [
        -69.58675,
        23.19577
      ],
      [
        -69.63078,
        23.244
      ],
      [
        -69.67483,
        23.29222
      ],
      [
        -69.7189,
        23.34044
      ],
      [
        -69.76298,
        23.38867
      ],
      [
        -69.80707,
        23.43689
      ],
      [
        -69.82598,
        23.45756
      ]
    ]
  }
}
