{
  "type": "Feature",
  "properties": {
    "dropId": "turks-and-caicos",
    "label": "Turks & Caicos",
    "startDate": "2023-05-15",
    "endDate": "2026-05-23",
    "daysElapsed": 1104,
    "estimatedRegion": "the Atlantic off the southeastern United States",
    "currentName": "Caribbean surface current",
    "direction": "NW",
    "speedKmDay": 1.0,
    "lastLat": 30.4005,
    "lastLng": -77.7232
  },
  "geometry": {
    "type": "LineString",
    "coordinates": [
      [
        -72.1825,
        21.7945
      ],
      [
        -72.21641,
        21.84902
      ],
      [
        -72.25033,
        21.90354
      ],
      [
        -72.28426,
        21.95805
      ],
      [
        -72.3182,
        22.01257
      ],
      [
        -72.35216,
        22.06709
      ],
      [
        -72.38614,
        22.12161
      ],
      [
        -72.42012,
        22.17613
      ],
      [
        -72.45412,
        22.23064
      ],
      [
        -72.48813,
        22.28516
      ],
      [
        -72.52215,
        22.33968
      ],
      [
        -72.55619,
        22.3942
      ],
      [
        -72.59024,
        22.44872
      ],
      [
        -72.62431,
        22.50323
      ],
      [
        -72.65839,
        22.55775
      ],
      [
        -72.69248,
        22.61227
      ],
      [
        -72.72658,
        22.66679
      ],
      [
        -72.7607,
        22.72131
      ],
      [
        -72.79483,
        22.77582
      ],
      [
        -72.82898,
        22.83034
      ],
      [
        -72.86314,
        22.88486
      ],
      [
        -72.89731,
        22.93938
      ],
      [
        -72.9315,
        22.9939
      ],
      [
        -72.9657,
        23.04841
      ],
      [
        -72.99992,
        23.10293
      ],
      [
        -73.03414,
        23.15745
      ],
      [
        -73.06839,
        23.21197
      ],
      [
        -73.10264,
        23.26648
      ],
      [
        -73.13691,
        23.321
      ],
      [
        -73.1712,
        23.37552
      ],
      [
        -73.2055,
        23.43004
      ],
      [
        -73.23981,
        23.48456
      ],
      [
        -73.27414,
        23.53907
      ],
      [
        -73.30848,
        23.59359
      ],
      [
        -73.34283,
        23.64811
      ],
      [
        -73.3772,
        23.70263
      ],
      [
        -73.41159,
        23.75715
      ],
      [
        -73.44599,
        23.81166
      ],
      [
        -73.4804,
        23.86618
      ],
      [
        -73.51483,
        23.9207
      ],
      [
        -73.54927,
        23.97522
      ],
      [
        -73.58373,
        24.02974
      ],
      [
        -73.6182,
        24.08425
      ],
      [
        -73.65268,
        24.13877
      ],
      [
        -73.68719,
        24.19329
      ],
      [
        -73.7217,
        24.24781
      ],
      [
        -73.75623,
        24.30233
      ],
      [
        -73.79078,
        24.35684
      ],
      [
        -73.82534,
        24.41136
      ],
      [
        -73.85991,
        24.46588
      ],
      [
        -73.8945,
        24.5204
      ],
      [
        -73.92911,
        24.57492
      ],
      [
        -73.96373,
        24.62943
      ],
      [
        -73.99836,
        24.68395
      ],
      [
        -74.03301,
        24.73847
      ],
      [
        -74.06768,
        24.79299
      ],
      [
        -74.10236,
        24.8475
      ],
      [
        -74.13705,
        24.90202
      ],
      [
        -74.17177,
        24.95654
      ],
      [
        -74.20649,
        25.01106
      ],
      [
        -74.24123,
        25.06558
      ],
      [
        -74.27599,
        25.12009
      ],
      [
        -74.31077,
        25.17461
      ],
      [
        -74.34555,
        25.22913
      ],
      [
        -74.38036,
        25.28365
      ],
      [
        -74.41518,
        25.33817
      ],
      [
        -74.45001,
        25.39268
      ],
      [
        -74.48486,
        25.4472
      ],
      [
        -74.51973,
        25.50172
      ],
      [
        -74.55462,
        25.55624
      ],
      [
        -74.58951,
        25.61076
      ],
      [
        -74.62443,
        25.66527
      ],
      [
        -74.65936,
        25.71979
      ],
      [
        -74.69431,
        25.77431
      ],
      [
        -74.72927,
        25.82883
      ],
      [
        -74.76425,
        25.88334
      ],
      [
        -74.79924,
        25.93786
      ],
      [
        -74.83425,
        25.99238
      ],
      [
        -74.86928,
        26.0469
      ],
      [
        -74.90433,
        26.10142
      ],
      [
        -74.93939,
        26.15593
      ],
      [
        -74.97446,
        26.21045
      ],
      [
        -75.00956,
        26.26497
      ],
      [
        -75.04467,
        26.31949
      ],
      [
        -75.07979,
        26.37401
      ],
      [
        -75.11493,
        26.42852
      ],
      [
        -75.15009,
        26.48304
      ],
      [
        -75.18527,
        26.53756
      ],
      [
        -75.22046,
        26.59208
      ],
      [
        -75.25567,
        26.64659
      ],
      [
        -75.2909,
        26.70111
      ],
      [
        -75.32614,
        26.75563
      ],
      [
        -75.3614,
        26.81015
      ],
      [
        -75.39668,
        26.86467
      ],
      [
        -75.43197,
        26.91918
      ],
      [
        -75.46728,
        26.9737
      ],
      [
        -75.50261,
        27.02822
      ],
      [
        -75.53796,
        27.08274
      ],
      [
        -75.57332,
        27.13726
      ],
      [
        -75.6087,
        27.19177
      ],
      [
        -75.6441,
        27.24629
      ],
      [
        -75.67951,
        27.30081
      ],
      [
        -75.71494,
        27.35533
      ],
      [
        -75.75039,
        27.40984
      ],
      [
        -75.78586,
        27.46436
      ],
      [
        -75.82134,
        27.51888
      ],
      [
        -75.85684,
        27.5734
      ],
      [
        -75.89236,
        27.62792
      ],
      [
        -75.9279,
        27.68243
      ],
      [
        -75.96346,
        27.73695
      ],
      [
        -75.99903,
        27.79147
      ],
      [
        -76.03462,
        27.84599
      ],
      [
        -76.07023,
        27.90051
      ],
      [
        -76.10585,
        27.95502
      ],
      [
        -76.1415,
        28.00954
      ],
      [
        -76.17716,
        28.06406
      ],
      [
        -76.21284,
        28.11858
      ],
      [
        -76.24854,
        28.17309
      ],
      [
        -76.28426,
        28.22761
      ],
      [
        -76.31999,
        28.28213
      ],
      [
        -76.35575,
        28.33665
      ],
      [
        -76.39152,
        28.39117
      ],
      [
        -76.42731,
        28.44568
      ],
      [
        -76.46312,
        28.5002
      ],
      [
        -76.49894,
        28.55472
      ],
      [
        -76.53479,
        28.60924
      ],
      [
        -76.57066,
        28.66375
      ],
      [
        -76.60654,
        28.71827
      ],
      [
        -76.64244,
        28.77279
      ],
      [
        -76.67836,
        28.82731
      ],
      [
        -76.7143,
        28.88183
      ],
      [
        -76.75026,
        28.93634
      ],
      [
        -76.78624,
        28.99086
      ],
      [
        -76.82223,
        29.04538
      ],
      [
        -76.85825,
        29.0999
      ],
      [
        -76.89428,
        29.15441
      ],
      [
        -76.93033,
        29.20893
      ],
      [
        -76.96641,
        29.26345
      ],
      [
        -77.0025,
        29.31797
      ],
      [
        -77.03861,
        29.37249
      ],
      [
        -77.07474,
        29.427
      ],
      [
        -77.11089,
        29.48152
      ],
      [
        -77.14706,
        29.53604
      ],
      [
        -77.18325,
        29.59056
      ],
      [
        -77.21946,
        29.64507
      ],
      [
        -77.25569,
        29.69959
      ],
      [
        -77.29193,
        29.75411
      ],
      [
        -77.3282,
        29.80863
      ],
      [
        -77.36449,
        29.86315
      ],
      [
        -77.40079,
        29.91766
      ],
      [
        -77.43712,
        29.97218
      ],
      [
        -77.47347,
        30.0267
      ],
      [
        -77.50984,
        30.08122
      ],
      [
        -77.54622,
        30.13573
      ],
      [
        -77.58263,
        30.19025
      ],
      [
        -77.61906,
        30.24477
      ],
      [
        -77.6555,
        30.29929
      ],
      [
        -77.69197,
        30.35381
      ],
      [
        -77.72325,
        30.40053
      ]
    ]
  }
}
